OBJECTID,Hospital Name,Category,Address Line,Suburb,State,Postcode,x,y
1,ST VINCENT'S PRIVATE HOSPITAL EAST MELBOURNE,PRIVATE OVERNIGHT,159 GREY STREET,EAST MELBOURNE,VIC,3002,144.98399986,-37.81197858
2,HOBART DAY SURGERY,PRIVATE SAME DAY,10 WARNEFORD STREET,HOBART,TAS,7000,147.31931744,-42.88952047
3,THE EYE HOSPITAL,PRIVATE SAME DAY,262 CHARLES STREET,LAUNCESTON,TAS,7250,147.1416081,-41.4445906399999
4,CALVARY BRUCE PRIVATE HOSPITAL,PRIVATE OVERNIGHT,30 MARY POTTER CIRCUIT,BRUCE,ACT,2617,149.09130988,-35.25378424
5,CALVARY JOHN JAMES HOSPITAL,PRIVATE OVERNIGHT,173 STRICKLAND CRESCENT,DEAKIN,ACT,2600,149.09567038,-35.3198665799999
6,NATIONAL CAPITAL PRIVATE HOSPITAL,PRIVATE OVERNIGHT,GILMORE CRESCENT & HOSPITAL ROAD,GARRAN,ACT,2605,149.10194776,-35.3448648199999
7,ALBURY WODONGA PRIVATE HOSPITAL,PRIVATE OVERNIGHT,1125 PEMBERTON STREET,ALBURY,NSW,2640,146.88317724,-36.07562067
8,ALWYN REHABILITATION HOSPITAL,PRIVATE OVERNIGHT,1 EMU STREET,STRATHFIELD,NSW,2135,151.09435136,-33.88284506
9,ARMIDALE PRIVATE HOSPITAL,PRIVATE OVERNIGHT,RUSDEN STREET,ARMIDALE,NSW,2350,151.65470731,-30.51213776
10,BERKELEY VALE PRIVATE HOSPITAL,PRIVATE OVERNIGHT,11 LORRAINE AVENUE,BERKELEY VALE,NSW,2261,151.43276447,-33.3370626999999
11,BONDI JUNCTION PRIVATE HOSPITAL,PRIVATE OVERNIGHT,"LEVEL 1 & 2,  21 SPRING STREET",BONDI JUNCTION,NSW,2022,151.24581311,-33.89236755
12,BRISBANE WATERS PRIVATE HOSPITAL,PRIVATE OVERNIGHT,21 VIDLER AVENUE,WOY WOY,NSW,2256,151.32170436,-33.49524588
13,CALVARY RIVERINA HOSPITAL,PRIVATE OVERNIGHT,HARDY AVENUE,WAGGA WAGGA,NSW,2650,147.35276474,-35.11877263
14,FORSTER PRIVATE HOSPITAL,PRIVATE OVERNIGHT,5A SOUTH STREET,FORSTER,NSW,2428,152.51363418,-32.18844904
15,CASTLECRAG PRIVATE HOSPITAL,PRIVATE OVERNIGHT,150 EDINBURGH ROAD,CASTLECRAG,NSW,2068,151.21704556,-33.80182173
16,DELMAR PRIVATE HOSPITAL,PRIVATE OVERNIGHT,58 QUIRK STREET,DEE WHY,NSW,2099,151.28807642,-33.75794099
17,DUBBO PRIVATE HOSPITAL,PRIVATE OVERNIGHT,RIVER STREET,DUBBO,NSW,2830,148.62096023,-32.2368517699999
18,DUDLEY PRIVATE HOSPITAL,PRIVATE OVERNIGHT,261 MARCH STREET,ORANGE,NSW,2800,149.12152036,-33.28230947
19,EASTERN SUBURBS PRIVATE HOSPITAL,PRIVATE OVERNIGHT,8 CHAPEL STREET,RANDWICK,NSW,2031,151.24602162,-33.91038437
20,RAMSAY CLINIC CREMORNE,PRIVATE OVERNIGHT,3 HARRISON STREET,CREMORNE,NSW,2090,151.22284709,-33.83355926
21,IMH HIRONDELLE PRIVATE HOSPITAL,PRIVATE OVERNIGHT,10 WYVERN AVENUE,CHATSWOOD,NSW,2067,151.17860587,-33.79009357
22,HOLROYD PRIVATE HOSPITAL,PRIVATE OVERNIGHT,123-129 CHETWYND ROAD,GUILDFORD,NSW,2161,150.97907878,-33.8462866799999
23,THE SAN DAY SURGERY,PRIVATE SAME DAY,1A NORTHCOTE ROAD,HORNSBY,NSW,2077,151.11061586,-33.70198397
24,HUNTER VALLEY PRIVATE HOSPITAL,PRIVATE OVERNIGHT,20 MAWSON STREET,SHORTLAND,NSW,2307,151.69505895,-32.88308189
25,HUNTERS HILL PRIVATE HOSPITAL,PRIVATE OVERNIGHT,9 MOUNT STREET,HUNTERS HILL,NSW,2110,151.15017378,-33.83525273
26,HURSTVILLE PRIVATE HOSPITAL,PRIVATE OVERNIGHT,37 GLOUCESTER ROAD,HURSTVILLE,NSW,2220,151.09587176,-33.96231419
27,FIGTREE PRIVATE HOSPITAL,PRIVATE OVERNIGHT,1 SUTTOR PLACE,FIGTREE,NSW,2525,150.85107853,-34.43974279
28,BRINDABELLA ENDOSCOPY CENTRE,PRIVATE SAME DAY,SUITE 7/5 DANN CLOSE,GARRAN,ACT,2605,149.10270994,-35.3496798199999
29,CANBERRA SURGICENTRE,PRIVATE SAME DAY,"SUITE 2, SCALA HOUSE TORRENS, 11 TORRENS STREET",BRADDON,ACT,2612,149.13350316,-35.2745965899999
30,MUGGA WARA ENDOSCOPY CENTRE,PRIVATE SAME DAY,1/70 KENT STREET,DEAKIN,ACT,2600,149.09753442,-35.31991707
31,AESTHETIC DAY SURGERY,PRIVATE SAME DAY,14 KENSINGTON STREET,KOGARAH,NSW,2217,151.13497427,-33.96514752
32,ALBURY DAY SURGERY,PRIVATE SAME DAY,4 BAKER COURT,ALBURY,NSW,2640,146.88353755,-36.0736616799999
33,METWEST SURGICAL,PRIVATE SAME DAY,17 HEREWARD HIGHWAY,BLACKTOWN,NSW,2148,150.91242118,-33.77423569
34,BONDI JUNCTION ENDOSCOPY CENTRE,PRIVATE SAME DAY,56 GROSVENOR STREET,WOOLLAHRA,NSW,2025,151.24921505,-33.8901499199999
35,SYDNEY SPECIALIST DAY HOSPITAL,PRIVATE SAME DAY,"SUITE 501, 7 HELP STREET",CHATSWOOD,NSW,2067,151.18004235,-33.7954359199999
36,CENTRE FOR DIGESTIVE DISEASES,PRIVATE SAME DAY,"LEVEL 1, 229 GREAT NORTH ROAD",FIVE DOCK,NSW,2046,151.13009107,-33.8651172799999
37,CITY WEST SPECIALIST DAY HOSPITAL,PRIVATE SAME DAY,30 MONS ROAD,WESTMEAD,NSW,2145,150.98220388,-33.8013875899999
38,DEE WHY ENDOSCOPY UNIT,PRIVATE SAME DAY,LEVEL 4 SUITE 4402 DEE WHY GRAND 834 PITTWATER ROAD,DEE WHY,NSW,2099,151.28481397,-33.75526537
39,DIAGNOSTIC ENDOSCOPY CENTRE,PRIVATE SAME DAY,601/438 VICTORIA STREET,DARLINGHURST,NSW,2010,151.21961713,-33.8811637599999
40,EASTERN HEART CLINIC,PRIVATE SAME DAY,"LEVEL 3, CAMPUS CENTRE BUILDING, PRINCE OF WALES CAMPUS, BARKER STREET",RANDWICK,NSW,2031,151.2386535,-33.91848565
41,EXCEL ENDOSCOPY CENTRE,PRIVATE SAME DAY,490 CANTERBURY ROAD,CAMPSIE,NSW,2194,151.1014258,-33.91979193
42,CHATSWOOD DAY SURGERY,PRIVATE SAME DAY,"LEVELS 3 & 4, 270 VICTORIA STREET",CHATSWOOD,NSW,2067,151.18744016,-33.79530907
43,FRANCIS STREET OPHTHALMIC DAY PROCEDURE CENTRE,PRIVATE SAME DAY,112 FRANCIS STREET,RICHMOND,NSW,2753,150.75105705,-33.59519847
44,NEWCASTLE EYE HOSPITAL,PRIVATE SAME DAY,182 CHRISTO ROAD,WARATAH,NSW,2298,151.71744741,-32.90993345
45,INNER WEST ENDOSCOPY CENTRE,PRIVATE SAME DAY,311 MARRICKVILLE ROAD,MARRICKVILLE,NSW,2204,151.15362716,-33.9090452199999
46,INSIGHT PRIVATE HOSPITAL,PRIVATE OVERNIGHT,"LEVEL 5, 470 WODONGA PLACE",ALBURY,NSW,2640,146.91081099,-36.08172925
47,KINGSGROVE DAY HOSPITAL,PRIVATE SAME DAY,"LEVEL 1, 322 KINGSGROVE ROAD",KINGSGROVE,NSW,2208,151.10213314,-33.94385245
48,LIVERPOOL DAY SURGERY,PRIVATE SAME DAY,105-119 LONGSTAFF AVENUE,MOOREBANK,NSW,2170,150.95370261,-33.92632263
49,MARSDEN EYE SURGERY CENTRE,PRIVATE SAME DAY,152 MARSDEN STREET,PARRAMATTA,NSW,2150,151.00176979,-33.81378387
50,MIRANDA EYE SURGICAL CENTRE,PRIVATE SAME DAY,"SUITE 4, 16-22 WILLOCK AVENUE",MIRANDA,NSW,2228,151.10146357,-34.03242132
51,ORANGE EYE CENTRE,PRIVATE SAME DAY,267-277 LORDS PLACE,ORANGE,NSW,2800,149.10151855,-33.28024375
52,PENNANT HILLS DAY SURGERY,PRIVATE SAME DAY,361-363 PENNANT HILLS ROAD,PENNANT HILLS,NSW,2120,151.07435314,-33.73830644
53,REGIONAL IMAGING CARDIOVASCULAR CENTRE,PRIVATE SAME DAY,"CALVARY HOSPITAL, 36, HARDY AVENUE",WAGGA WAGGA,NSW,2650,147.35274182,-35.11902601
54,ROSEBERY DAY SURGERY,PRIVATE SAME DAY,308 GARDENERS ROAD,ROSEBERY,NSW,2018,151.20726216,-33.9227028399999
55,ROSEMONT ENDOSCOPY CENTRE,PRIVATE SAME DAY,56 ROSEMONT STREET,WOLLONGONG,NSW,2500,150.87698033,-34.42527082
56,THE SKIN HOSPITAL,PRIVATE SAME DAY,7 ASHLEY LANE,WESTMEAD,NSW,2145,150.98850166,-33.8074683
57,SOUTHERN MEDICAL DAY CARE CENTRE,PRIVATE SAME DAY,410 CROWN STREET,WOLLONGONG,NSW,2500,150.87613861,-34.42553878
58,FOREST ROAD DAY SURGERY,PRIVATE SAME DAY,99A FOREST ROAD,HURSTVILLE,NSW,2220,151.11082861,-33.9678429799999
59,SOUTH WESTERN ENDOSCOPY CENTRE,PRIVATE SAME DAY,20-22 BIGGE STREET,LIVERPOOL,NSW,2170,150.92847909,-33.9164211999999
60,CENTRAL SYDNEY PRIVATE HOSPITAL,PRIVATE SAME DAY,"LEVEL 5, 401 SUSSEX STREET",SYDNEY,NSW,2000,151.20468892,-33.87817806
61,SYDNEY DAY SURGERY - PRINCE ALFRED,PRIVATE SAME DAY,"RPAH MEDICAL CENTRE SUITE 106, 100 CARILLON AVENUE",NEWTOWN,NSW,2042,151.18347962,-33.8916082499999
62,GENEA DAY SURGERY,PRIVATE SAME DAY,"LEVEL 4, 321 KENT STREET",SYDNEY,NSW,2000,151.20375149,-33.86747467
63,SYDNEY CLINIC FOR GASTROINTESTINAL DISEASES,PRIVATE SAME DAY,"LEVEL 10, 1 NEWLAND STREET",BONDI JUNCTION,NSW,2022,151.24722149,-33.8919712699999
64,TWEED DAY SURGERY,PRIVATE SAME DAY,"SUITE 4, 38-44 BOYD STREET",TWEED HEADS,NSW,2485,153.54001409,-28.1787503099999
65,CALVARY RIVERINA SURGICENTRE,PRIVATE SAME DAY,"329, 331, 333 EDWARD STREET",WAGGA WAGGA,NSW,2650,147.35250426,-35.1159931399999
66,FRESHWATER DAY SURGERY,PRIVATE SAME DAY,10 DALE STREET,BROOKVALE,NSW,2100,151.26804523,-33.76499052
67,MSI SYDNEY WEST,PRIVATE SAME DAY,27 RAILWAY PARADE,WESTMEAD,NSW,2145,150.98782172,-33.80775239
68,WOLLONGONG DAY SURGERY,PRIVATE SAME DAY,354-358 CROWN STREET,WOLLONGONG,NSW,2500,150.88156447,-34.4257510699999
69,BRISBANE ENDOSCOPY SERVICE,PRIVATE SAME DAY,"SUITES 16 & 17 MCCULLOUGH CENTRE, 259 MCCULLOUGH STREET",SUNNYBANK,QLD,4109,153.06193081,-27.5726523499999
70,RAMSAY SURGICAL CENTRE CAIRNS,PRIVATE SAME DAY,156-160 GRAFTON STREET,CAIRNS,QLD,4870,145.77195805,-16.91897763
71,EYE-TECH DAY SURGERIES,PRIVATE SAME DAY,"LEVELS 3 & 5, ST ANDREW'S PLACE, 33 NORTH STREET",SPRING HILL,QLD,4000,153.02175837,-27.46113078
72,SOUTHSIDE ENDOSCOPY CENTRE,PRIVATE SAME DAY,"LEVEL 6, 4 PAXTON STREET",SPRINGWOOD,QLD,4127,153.1263732,-27.61731961
73,ICON CANCER CENTRE SOUTH BRISBANE,PRIVATE SAME DAY,293 VULTURE STREET,SOUTH BRISBANE,QLD,4101,153.0279507,-27.4840280299999
74,MATER PRIVATE HOSPITAL MACKAY (WELLINGTON STREET CAMPUS),PRIVATE SAME DAY,1 WELLINGTON STREET,MACKAY,QLD,4740,149.18148939,-21.13910398
75,NORTH QUEENSLAND DAY SURGICAL CENTRE,PRIVATE SAME DAY,119 KINGS ROAD,PIMLICO,QLD,4812,146.79146572,-19.27963126
76,MORETON DAY HOSPITAL,PRIVATE SAME DAY,"SPECIALIST MEDICAL CENTRE, LEVEL 2, SUITE 201, 6 NORTH LAKES DRIVE",NORTH LAKES,QLD,4509,153.02048579,-27.2414909
77,PINDARA DAY PROCEDURE CENTRE,PRIVATE SAME DAY,13 CARRARA STREET,BENOWA,QLD,4217,153.39394638,-28.0077123799999
78,BRISBANE DAY SURGERY,PRIVATE SAME DAY,55 LITTLE EDWARD STREET,SPRING HILL,QLD,4004,153.02457426,-27.46119127
79,RODERICK STREET DAY SURGERY,PRIVATE SAME DAY,23 RODERICK STREET,IPSWICH,QLD,4305,152.76166477,-27.6176538199999
80,SHORT STREET DAY SURGERY,PRIVATE SAME DAY,2 SHORT STREET,SOUTHPORT,QLD,4215,153.41703172,-27.9703998699999
81,SUNSHINE COAST DAY SURGERY,PRIVATE SAME DAY,CNR MEMORIAL & SECOND AVENUES,MAROOCHYDORE,QLD,4558,153.09613465,-26.65541
82,SUNSHINE COAST HAEMATOLOGY AND ONCOLOGY CLINIC,PRIVATE SAME DAY,8-10 KING STREET,BUDERIM,QLD,4556,153.05675648,-26.68449831
83,WESLEY HYPERBARIC,PRIVATE SAME DAY,"GROUND FLOOR, SANDFORD JACKSON BUILDING, CHASELY STREET",AUCHENFLOWER,QLD,4066,152.99781217,-27.4771787999999
84,TOOWOOMBA SURGICENTRE,PRIVATE SAME DAY,18 SCOTT STREET,TOOWOOMBA,QLD,4350,151.97390296,-27.5663765899999
85,IPSWICH DAY HOSPITAL,PRIVATE SAME DAY,10 CHURCHILL STREET,IPSWICH,QLD,4305,152.7605406,-27.61865468
86,SPRING HILL SPECIALIST DAY HOSPITAL,PRIVATE SAME DAY,"LEVELS 8 & 9, 525 BOUNDARY STREET",SPRING HILL,QLD,4000,153.02161536,-27.46108772
87,ICON CANCER CENTRE WESLEY,PRIVATE SAME DAY,"1ST FLOOR, WESLEY MEDICAL CENTRE, 40 CHASLEY STREET",AUCHENFLOWER,QLD,4066,152.99745131,-27.4767197799999
88,BRIGHTON DAY SURGERY,PRIVATE SAME DAY,1 JETTY ROAD,BRIGHTON,SA,5048,138.52241911,-35.01723801
89,GLENELG DAY SURGERY,PRIVATE SAME DAY,24 GORDON STREET,GLENELG,SA,5045,138.51791967,-34.9787073599999
90,GLEN OSMOND SURGICENTRE,PRIVATE SAME DAY,45 GLEN OSMOND ROAD,EASTWOOD,SA,5063,138.61978149,-34.94267566
91,HAMILTON HOUSE DAY SURGERY,PRIVATE SAME DAY,470 GOODWOOD ROAD,CUMBERLAND PARK,SA,5041,138.59109673,-34.9749002999999
92,BRIGHTON DIALYSIS CLINIC,PRIVATE SAME DAY,361-365 BRIGHTON RD,HOVE,SA,5048,138.52211137,-35.00950018
93,ADELAIDE SURGICENTRE,PRIVATE SAME DAY,89 KING WILLIAM ST,KENT TOWN,SA,5067,138.62117032,-34.9178161899999
94,NORTH ADELAIDE DAY SURGERY CENTRE,PRIVATE SAME DAY,174 WARD STREET,NORTH ADELAIDE,SA,5006,138.59473893,-34.90871354
95,NORTHERN ENDOSCOPY CENTRE,PRIVATE SAME DAY,127 FROST ROAD,SALISBURY SOUTH,SA,5106,138.65092521,-34.78178464
96,CAMBERWELL DAY SURGERY,PRIVATE SAME DAY,27 DENMARK HILL ROAD,HAWTHORN EAST,VIC,3123,145.05559621,-37.8325312499999
97,THE DIGESTIVE HEALTH CENTRE,PRIVATE SAME DAY,90 DAVID STREET,DANDENONG,VIC,3175,145.21662586,-37.97739139
98,FOOTSCRAY DAY SURGERY,PRIVATE SAME DAY,89 PAISLEY STREET,FOOTSCRAY,VIC,3011,144.8951209,-37.8005322299999
99,IVANHOE ENDOSCOPY CENTRE,PRIVATE SAME DAY,2/226 UPPER HEIDELBERG ROAD,IVANHOE,VIC,3079,145.0449198,-37.7670588899999
100,NOBLE PARK ENDOSCOPY CENTRE,PRIVATE SAME DAY,1304 HEATHERTON ROAD,NOBLE PARK,VIC,3174,145.18971989,-37.96711963
101,NORTH WEST DAY HOSPITAL,PRIVATE SAME DAY,221 MARIBYRNONG ROAD,ASCOT VALE,VIC,3032,144.90937832,-37.77115356
102,WINDSOR PRIVATE HOSPITAL,PRIVATE OVERNIGHT,20 THE AVENUE,WINDSOR,VIC,3181,144.99806236,-37.8560841999999
103,CHESTERVILLE DAY HOSPITAL,PRIVATE SAME DAY,28 CHESTERVILLE ROAD,CHELTENHAM,VIC,3192,145.05691558,-37.9606294
104,SOUTHERN EYE CENTRE DAY SURGERY,PRIVATE SAME DAY,44 CRANBOURNE ROAD,FRANKSTON,VIC,3199,145.13210211,-38.14589158
105,SPRINGVALE ENDOSCOPY CENTRE AND DAY HOSPITAL,PRIVATE SAME DAY,20 BALMORAL AVENUE,SPRINGVALE,VIC,3171,145.14961479,-37.9494726799999
106,WAVERLEY ENDOSCOPY,PRIVATE SAME DAY,301 BLACKBURN ROAD,MOUNT WAVERLEY,VIC,3149,145.14663983,-37.88035811
107,WESTERN GASTROENTEROLOGY SERVICES,PRIVATE SAME DAY,30 ELEANOR STREET,FOOTSCRAY,VIC,3011,144.8853633,-37.79198366
108,KEILOR PRIVATE,PRIVATE SAME DAY,12A KENNEDY STREET,KEILOR,VIC,3036,144.83447506,-37.71971504
109,WHITEHORSE DAY SURGERY,PRIVATE SAME DAY,852-856 WHITEHORSE ROAD,BOX HILL,VIC,3128,145.11947967,-37.8177426299999
110,PERTH EYE HOSPITAL,PRIVATE SAME DAY,42 ORD STREET,WEST PERTH,WA,6005,115.8397865,-31.95001446
111,LIONS EYE INSTITUTE DAY SURGERY CENTRE,PRIVATE SAME DAY,2 VERDUN STREET,NEDLANDS,WA,6009,115.8139212,-31.9673318599999
112,MCCOURT STREET DAY SURGERY,PRIVATE SAME DAY,28 MCCOURT STREET,WEST LEEDERVILLE,WA,6007,115.82798377,-31.94136771
113,NEPEAN PRIVATE HOSPITAL,PRIVATE OVERNIGHT,BARBER AVENUE,KINGSWOOD,NSW,2747,150.71319139,-33.75793354
114,KAREENA PRIVATE HOSPITAL,PRIVATE OVERNIGHT,86 KAREENA ROAD,CARINGBAH,NSW,2229,151.11422064,-34.03505494
115,LADY DAVIDSON PRIVATE HOSPITAL,PRIVATE OVERNIGHT,434 BOBBIN HEAD ROAD,NORTH TURRAMURRA,NSW,2074,151.1512059,-33.69081104
116,LAKE MACQUARIE PRIVATE HOSPITAL,PRIVATE OVERNIGHT,3 SYDNEY STREET,GATESHEAD,NSW,2290,151.69171878,-32.98123264
117,LINGARD PRIVATE HOSPITAL,PRIVATE OVERNIGHT,23 MEREWETHER STREET,MEREWETHER,NSW,2291,151.75564066,-32.94046689
118,LITHGOW COMMUNITY PRIVATE HOSPITAL,PRIVATE SAME DAY,2 COL DREWE DRIVE,LITHGOW,NSW,2790,150.12741039,-33.49953622
119,LONGUEVILLE PRIVATE HOSPITAL,PRIVATE OVERNIGHT,45-47 KENNETH STREET,LONGUEVILLE,NSW,2066,151.16976913,-33.8274204699999
120,MANLY WATERS PRIVATE HOSPITAL,PRIVATE OVERNIGHT,17 COVE AVENUE,MANLY,NSW,2095,151.28452052,-33.80513565
121,MATER HOSPITAL SYDNEY,PRIVATE OVERNIGHT,25 ROCKLANDS ROAD,NORTH SYDNEY,NSW,2060,151.20175936,-33.83166482
122,MAYO PRIVATE HOSPITAL,PRIVATE OVERNIGHT,LOT 1 POTOROO DRIVE,TAREE,NSW,2430,152.43109935,-31.88195511
123,ROYAL REHAB PRIVATE PETERSHAM,PRIVATE OVERNIGHT,275 ADDISON ROAD,PETERSHAM,NSW,2049,151.15573761,-33.8992972299999
124,MINCHINBURY COMMUNITY PRIVATE HOSPITAL,PRIVATE OVERNIGHT,120 RUPERTSWOOD ROAD,MOUNT DRUITT,NSW,2040,150.82813355,-33.7808909899999
125,MT WILGA PRIVATE HOSPITAL,PRIVATE OVERNIGHT,66 ROSAMOND STREET,HORNSBY,NSW,2077,151.09284726,-33.6920181799999
126,NEWCASTLE PRIVATE HOSPITAL,PRIVATE OVERNIGHT,14 LOOKOUT ROAD,NEW LAMBTON HEIGHTS,NSW,2305,151.69868306,-32.9225797299999
127,GOSFORD PRIVATE HOSPITAL,PRIVATE OVERNIGHT,BURRABIL AVENUE,GOSFORD,NSW,2250,151.34970752,-33.4184650999999
128,RAMSAY CLINIC NORTHSIDE,PRIVATE OVERNIGHT,2 FREDERICK STREET,ST LEONARDS,NSW,2065,151.19086371,-33.81725748
129,NORTH SHORE PRIVATE HOSPITAL,PRIVATE OVERNIGHT,WESTBOURNE STREET,ST LEONARDS,NSW,2065,151.18918763,-33.8206023499999
130,NOWRA PRIVATE HOSPITAL,PRIVATE OVERNIGHT,WEEROONA PLACE,NOWRA,NSW,2541,150.60654693,-34.89352916
131,THE SYDNEY PRIVATE HOSPITAL,PRIVATE OVERNIGHT,63 VICTORIA STREET,ASHFIELD,NSW,2131,151.12931165,-33.8941346299999
132,PORT MACQUARIE PRIVATE HOSPITAL,PRIVATE OVERNIGHT,LAKE ROAD,PORT MACQUARIE,NSW,2444,152.90937804,-31.44207713
133,PRESIDENT PRIVATE HOSPITAL,PRIVATE OVERNIGHT,369-381 PRESIDENT AVENUE,KIRRAWEE,NSW,2232,151.07934912,-34.0366575199999
134,PRINCE OF WALES PRIVATE HOSPITAL,PRIVATE OVERNIGHT,"LEVELS 5-7, AMBULATORY CARE SERVICES CENTRE BUILDING, PRINCE OF WALES CAMPUS, BARKER STREET",RANDWICK,NSW,2031,151.23864855,-33.91847419
135,SHELLHARBOUR PRIVATE HOSPITAL,PRIVATE OVERNIGHT,27 CAPTAIN COOK DRIVE,BARRACK HEIGHTS,NSW,2528,150.84800393,-34.5590074099999
136,SOUTHERN HIGHLANDS PRIVATE HOSPITAL,PRIVATE OVERNIGHT,93-95 BOWRAL STREET,BOWRAL,NSW,2576,150.42282639,-34.48410587
137,SOUTH PACIFIC PRIVATE HOSPITAL,PRIVATE OVERNIGHT,24 BEACH STREET,CURL CURL,NSW,2096,151.29141958,-33.77510576
138,RAMSAY CLINIC WENTWORTHVILLE,PRIVATE OVERNIGHT,23-27 LYTTON STREET,WENTWORTHVILLE,NSW,2145,150.97469648,-33.8107749
139,ST GEORGE PRIVATE HOSPITAL,PRIVATE OVERNIGHT,1 SOUTH STREET,KOGARAH,NSW,2217,151.13604031,-33.96693541
140,ST JOHN OF GOD RICHMOND HOSPITAL,PRIVATE OVERNIGHT,177 GROSE VALE ROAD,NORTH RICHMOND,NSW,2754,150.70208181,-33.5941302099999
141,ST LUKE'S HOSPITAL,PRIVATE OVERNIGHT,18 ROSLYN STREET,POTTS POINT,NSW,2011,151.22576113,-33.87442856
142,ST VINCENT'S PRIVATE HOSPITAL (LISMORE),PRIVATE OVERNIGHT,DALLEY STREET,LISMORE,NSW,2480,153.28749448,-28.8200777499999
143,ST VINCENT'S PRIVATE HOSPITAL (DARLINGHURST),PRIVATE OVERNIGHT,406 VICTORIA STREET,DARLINGHURST,NSW,2010,151.21962819,-33.8811396199999
144,BATHURST PRIVATE HOSPITAL,PRIVATE OVERNIGHT,51 GORMAN'S HILL ROAD,BATHURST,NSW,2795,149.58924252,-33.4352150399999
145,STRATHFIELD PRIVATE HOSPITAL,PRIVATE OVERNIGHT,3 EVERTON ROAD,STRATHFIELD,NSW,2135,151.09779695,-33.87199943
146,SYDNEY ADVENTIST HOSPITAL,PRIVATE OVERNIGHT,185 FOX VALLEY ROAD,WAHROONGA,NSW,2076,151.09946863,-33.7335126099999
147,THE SYDNEY CLINIC,PRIVATE OVERNIGHT,22-24 MURRAY STREET,BRONTE,NSW,2024,151.26098056,-33.90138704
148,SYDNEY SOUTHWEST PRIVATE HOSPITAL,PRIVATE OVERNIGHT,32-40 BIGGE STREET,LIVERPOOL,NSW,2170,150.92826948,-33.9171580999999
149,TAMARA PRIVATE HOSPITAL,PRIVATE OVERNIGHT,2-6 DEAN STREET,TAMWORTH,NSW,2340,150.92176838,-31.0775407099999
150,THE HILLS PRIVATE HOSPITAL,PRIVATE OVERNIGHT,499 WINDSOR ROAD,BAULKHAM HILLS,NSW,2153,150.98271601,-33.7440929799999
151,TORONTO PRIVATE HOSPITAL,PRIVATE OVERNIGHT,CARY STREET,TORONTO,NSW,2283,151.59341909,-33.0156701399999
152,WARNERS BAY PRIVATE HOSPITAL,PRIVATE OVERNIGHT,FAIRFAX ROAD,WARNERS BAY,NSW,2282,151.64120975,-32.9652664399999
153,WOLPER JEWISH HOSPITAL,PRIVATE OVERNIGHT,8 TRELAWNEY STREET,WOOLLAHRA,NSW,2025,151.24098428,-33.88406492
154,RAMSAY CLINIC ALBERT ROAD,PRIVATE OVERNIGHT,31 ALBERT ROAD,MELBOURNE,VIC,3004,144.9721355,-37.83429774
155,ESSENDON PRIVATE CLINIC,PRIVATE OVERNIGHT,35 ROSEHILL ROAD,ESSENDON WEST,VIC,3040,144.88541317,-37.74861792
156,BELEURA PRIVATE HOSPITAL,PRIVATE OVERNIGHT,925 NEPEAN HIGHWAY,MORNINGTON,VIC,3931,145.04931572,-38.2245899399999
157,THE GEELONG CLINIC,PRIVATE OVERNIGHT,98 TOWNSEND ROAD,ST ALBANS PARK,VIC,3219,144.39327001,-38.1824048
158,ST JOHN OF GOD BERWICK HOSPITAL,PRIVATE OVERNIGHT,75 KANGAN DRIVE,BERWICK,VIC,3806,145.34490484,-38.0454728999999
159,CABRINI BRIGHTON,PRIVATE OVERNIGHT,243 NEW STREET,BRIGHTON,VIC,3186,144.99122039,-37.91176803
160,EPWORTH CAMBERWELL,PRIVATE OVERNIGHT,888 TOORAK ROAD,CAMBERWELL,VIC,3124,145.0546866,-37.8462214899999
161,HOLMESGLEN PRIVATE HOSPITAL,PRIVATE OVERNIGHT,490 SOUTH ROAD,MOORABBIN,VIC,3189,145.05088532,-37.9358819999999
162,ST JOHN OF GOD LANGMORE CENTRE,PRIVATE OVERNIGHT,3 GIBB STREET,BERWICK,VIC,3806,145.34498146,-38.03454862
163,DELMONT PRIVATE HOSPITAL,PRIVATE OVERNIGHT,298 WARRIGAL ROAD,GLEN IRIS,VIC,3146,145.09406641,-37.85688513
164,DIAMOND VALLEY RENAL CARE CENTRE,PRIVATE SAME DAY,15 GRIMSHAW STREET,GREENSBOROUGH,VIC,3088,145.10753808,-37.7054348999999
165,DONVALE REHABILITATION HOSPITAL,PRIVATE OVERNIGHT,1119-1121 DONCASTER ROAD,DONVALE,VIC,3111,145.1716504,-37.7898363099999
166,DORSET REHABILITATION CENTRE,PRIVATE OVERNIGHT,146 DERBY STREET,PASCOE VALE,VIC,3044,144.9473972,-37.7232240499999
167,EPWORTH RICHMOND,PRIVATE OVERNIGHT,89 BRIDGE ROAD,RICHMOND,VIC,3121,144.99303023,-37.8174337099999
168,EUROA HEALTH,PRIVATE OVERNIGHT,36 KENNEDY STREET,EUROA,VIC,3666,145.57047035,-36.75923168
169,FRANCES PERRY HOUSE,PRIVATE OVERNIGHT,CNR GRATTAN STREET & FLEMINGTON ROAD,PARKVILLE,VIC,3052,144.9551338,-37.79875236
170,EPWORTH FREEMASONS,PRIVATE OVERNIGHT,109 ALBERT STREET & 320 VICTORIA PARADE,EAST MELBOURNE,VIC,3002,144.98233061,-37.80944562
171,HEYFIELD HOSPITAL INC,PRIVATE OVERNIGHT,14 LICOLA ROAD,HEYFIELD,VIC,3858,146.78401784,-37.97611748
172,NORTH EASTERN REHABILITATION CENTRE,PRIVATE OVERNIGHT,134-144 FORD STREET,IVANHOE,VIC,3079,145.03109585,-37.7634527
173,JESSIE MCPHERSON PRIVATE HOSPITAL,PRIVATE OVERNIGHT,246 CLAYTON ROAD,CLAYTON,VIC,3168,145.1223328,-37.92088946
174,KNOX PRIVATE HOSPITAL,PRIVATE OVERNIGHT,262 MOUNTAIN HIGHWAY,WANTIRNA,VIC,3152,145.22803574,-37.8496471
175,LA TROBE PRIVATE HOSPITAL,PRIVATE OVERNIGHT,CNR PLENTY ROAD AND KINGSBURY DRIVE,BUNDOORA,VIC,3083,145.0444156,-37.71655013
176,LINACRE PRIVATE HOSPITAL,PRIVATE OVERNIGHT,12 LINACRE ROAD,HAMPTON,VIC,3188,145.00325861,-37.9426990499999
177,MALVERN PRIVATE HOSPITAL,PRIVATE OVERNIGHT,3-9 WILTON VALE CRESCENT,MALVERN EAST,VIC,3145,145.06071614,-37.86694517
178,MARYVALE PRIVATE HOSPITAL,PRIVATE OVERNIGHT,286 MARYVALE ROAD,MORWELL,VIC,3840,146.41905872,-38.21557194
179,MASADA PRIVATE HOSPITAL,PRIVATE OVERNIGHT,26 BALACLAVA ROAD,EAST ST KILDA,VIC,3183,145.00309241,-37.8697996
180,MELBOURNE PRIVATE HOSPITAL,PRIVATE OVERNIGHT,ROYAL PARADE,PARKVILLE,VIC,3052,144.95702407,-37.79826817
181,MILDURA HEALTH PRIVATE HOSPITAL,PRIVATE OVERNIGHT,220-228 THIRTEENTH STREET,MILDURA,VIC,3500,142.14569631,-34.18478605
182,MITCHAM PRIVATE HOSPITAL,PRIVATE OVERNIGHT,27 AND 36 DONCASTER EAST ROAD,MITCHAM,VIC,3132,145.19502486,-37.8102548799999
183,MONASH SURGICAL PRIVATE HOSPITAL,PRIVATE SAME DAY,252-256 CLAYTON ROAD,CLAYTON,VIC,3168,145.12070967,-37.9219163499999
184,ST JOHN OF GOD BENDIGO HOSPITAL,PRIVATE OVERNIGHT,133-145 LILY STREET,BENDIGO,VIC,3550,144.26322451,-36.7618664
185,THE MELBOURNE EASTERN PRIVATE HOSPITAL,PRIVATE OVERNIGHT,157 SCORESBY ROAD,BORONIA,VIC,3155,145.26885796,-37.85556581
186,NEERIM HEALTH,PRIVATE OVERNIGHT,29-39 MAIN NEERIM ROAD,NEERIM SOUTH,VIC,3831,145.95385496,-38.02198358
187,NORTHPARK PRIVATE HOSPITAL,PRIVATE OVERNIGHT,CNR PLENTY AND GREENHILLS ROAD,BUNDOORA,VIC,3083,145.06228414,-37.6914598
188,PENINSULA PRIVATE HOSPITAL (VIC),PRIVATE OVERNIGHT,525 MCCLELLAND DRIVE,FRANKSTON,VIC,3199,145.16953713,-38.1575566999999
189,RESERVOIR PRIVATE HOSPITAL DAY PROCEDURE CENTRE,PRIVATE SAME DAY,73-75 PINE STREET,RESERVOIR,VIC,3073,144.99751581,-37.71751505
190,RINGWOOD PRIVATE HOSPITAL,PRIVATE OVERNIGHT,36 MOUNT DANDENONG ROAD,EAST RINGWOOD,VIC,3135,145.24362543,-37.81151561
191,SHEPPARTON PRIVATE HOSPITAL,PRIVATE OVERNIGHT,20 FITZGERALD STREET,SHEPPARTON,VIC,3630,145.41136017,-36.35922813
192,SIR JOHN MONASH PRIVATE HOSPITAL,PRIVATE SAME DAY,"1ST FLOOR, 212-220 CLAYTON ROAD",CLAYTON,VIC,3168,145.12143259,-37.91873485
193,SOUTH EASTERN PRIVATE HOSPITAL,PRIVATE OVERNIGHT,CNR PRINCES HIGHWAY & HEATHERTON ROAD,NOBLE PARK,VIC,3174,145.19192059,-37.96623806
194,CABRINI MALVERN,PRIVATE OVERNIGHT,181-183 WATTLETREE ROAD,MALVERN,VIC,3144,145.03350138,-37.8616402399999
195,ST JOHN OF GOD BALLARAT HOSPITAL,PRIVATE OVERNIGHT,101 DRUMMOND STREET NORTH,BALLARAT,VIC,3350,143.84686209,-37.5576887899999
196,ST JOHN OF GOD GEELONG HOSPITAL,PRIVATE OVERNIGHT,80 MYERS STREET,GEELONG,VIC,3220,144.35768215,-38.1515681299999
197,ST JOHN OF GOD WARRNAMBOOL HOSPITAL,PRIVATE OVERNIGHT,136 BOTANIC ROAD,WARRNAMBOOL,VIC,3280,142.47875402,-38.3714083
198,ST VINCENT'S PRIVATE HOSPITAL FITZROY,PRIVATE OVERNIGHT,59-61 VICTORIA PARADE,FITZROY,VIC,3065,144.97605163,-37.8078031699999
199,THE AVENUE PRIVATE HOSPITAL,PRIVATE OVERNIGHT,40 THE AVENUE,WINDSOR,VIC,3181,144.99828388,-37.8548057899999
200,THE MELBOURNE CLINIC,PRIVATE OVERNIGHT,130 CHURCH STREET,RICHMOND,VIC,3121,144.99927475,-37.8147484099999
201,MULGRAVE PRIVATE HOSPITAL,PRIVATE OVERNIGHT,BLANTON DRIVE,MULGRAVE,VIC,3170,145.21315031,-37.9386651199999
202,BRUNSWICK PRIVATE HOSPITAL,PRIVATE OVERNIGHT,82 MORELAND ROAD,BRUNSWICK,VIC,3056,144.97209067,-37.75669735
203,THE VICTORIA CLINIC,PRIVATE OVERNIGHT,324 MALVERN ROAD,PRAHRAN,VIC,3181,144.99722737,-37.84771554
204,THE VICTORIAN REHABILITATION CENTRE,PRIVATE OVERNIGHT,499 SPRINGVALE ROAD,GLEN WAVERLEY,VIC,3150,145.16141927,-37.89822845
205,ST VINCENT'S PRIVATE HOSPITAL KEW,PRIVATE OVERNIGHT,5 STUDLEY AVENUE,KEW,VIC,3101,145.023693,-37.80653216
206,WANGARATTA PRIVATE HOSPITAL,PRIVATE OVERNIGHT,134-150 TEMPLETON STREET,WANGARATTA,VIC,3677,146.31242098,-36.3493013099999
207,WARRINGAL PRIVATE HOSPITAL,PRIVATE OVERNIGHT,216 BURGUNDY STREET,HEIDELBERG,VIC,3084,145.06090591,-37.75485229
208,WAVERLEY PRIVATE HOSPITAL,PRIVATE OVERNIGHT,343-357 BLACKBURN ROAD,MOUNT WAVERLEY,VIC,3149,145.14554418,-37.8845153899999
209,WESTERN PRIVATE HOSPITAL,PRIVATE OVERNIGHT,1-9 MARION STREET,FOOTSCRAY,VIC,3011,144.88587468,-37.7931866599999
210,GOLD COAST PRIVATE HOSPITAL,PRIVATE OVERNIGHT,14 HILL STREET,SOUTHPORT,QLD,4215,153.38444303,-27.96184877
211,RAMSAY CLINIC CALOUNDRA,PRIVATE OVERNIGHT,96 BEERBURRUM STREET,CALOUNDRA,QLD,4551,153.12553541,-26.78238734
212,BELMONT PRIVATE HOSPITAL,PRIVATE OVERNIGHT,1220 CREEK ROAD,CARINA,QLD,4152,153.09906804,-27.5007244999999
213,BUDERIM PRIVATE HOSPITAL,PRIVATE OVERNIGHT,12 ELSA WILSON DRIVE,BUDERIM,QLD,4556,153.09306376,-26.6839269399999
214,CABOOLTURE PRIVATE HOSPITAL,PRIVATE OVERNIGHT,120-124 MCKEAN STREET,CABOOLTURE,QLD,4510,152.96442003,-27.08063586
215,CAIRNS PRIVATE HOSPITAL,PRIVATE OVERNIGHT,1 UPWARD STREET,CAIRNS,QLD,4870,145.77096902,-16.91541366
216,CANOSSA PRIVATE HOSPITAL,PRIVATE OVERNIGHT,169 SEVENTEEN MILE ROCKS ROAD,OXLEY,QLD,4075,152.96367234,-27.55467987
217,CLIFTON CO-OP HOSPITAL LTD,PRIVATE OVERNIGHT,24 NORMAN STREET,CLIFTON,QLD,4361,151.91111485,-27.9299677299999
218,FRIENDLY SOCIETY PRIVATE HOSPITAL,PRIVATE OVERNIGHT,19-23 BINGERA STREET,BUNDABERG WEST,QLD,4670,152.34245731,-24.8710134099999
219,GREENSLOPES PRIVATE HOSPITAL,PRIVATE OVERNIGHT,NEWDEGATE STREET,GREENSLOPES,QLD,4120,153.04695746,-27.51304306
220,BRISBANE PRIVATE HOSPITAL,PRIVATE OVERNIGHT,259 WICKHAM TERRACE,BRISBANE,QLD,4000,153.02263662,-27.4647461599999
221,JOHN FLYNN PRIVATE HOSPITAL,PRIVATE OVERNIGHT,42 INLAND DRIVE,TUGUN,QLD,4224,153.48862039,-28.1539109299999
222,MATER WOMEN'S & CHILDREN'S PRIVATE HEALTH SERVICES,PRIVATE OVERNIGHT,RAYMOND TERRACE,SOUTH BRISBANE,QLD,4101,153.02784682,-27.4858920999999
223,MATER PRIVATE HOSPITAL (SOUTH BRISBANE),PRIVATE OVERNIGHT,301 VULTURE ST,SOUTH BRISBANE,QLD,4101,153.0287311,-27.48398943
224,MATER PRIVATE HOSPITAL BUNDABERG,PRIVATE OVERNIGHT,313 BOURBONG STREET,BUNDABERG,QLD,4670,152.33040629,-24.8707590299999
225,MATER PRIVATE HOSPITAL MACKAY,PRIVATE OVERNIGHT,76 WILLETTS ROAD,NORTH MACKAY,QLD,4740,149.16591763,-21.13104522
226,MATER PRIVATE HOSPITAL ROCKHAMPTON,PRIVATE OVERNIGHT,CNR WARD & JESSIE STREETS,ROCKHAMPTON,QLD,4700,150.49744157,-23.39802965
227,MATER PRIVATE HOSPITAL TOWNSVILLE,PRIVATE OVERNIGHT,25 FULHAM ROAD,PIMLICO,QLD,4810,146.78753284,-19.2889983699999
228,ST VINCENT'S PRIVATE HOSPITAL BRISBANE,PRIVATE OVERNIGHT,411 MAIN STREET,KANGAROO POINT,QLD,4169,153.03498529,-27.4736162
229,RAMSAY CLINIC NEW FARM,PRIVATE OVERNIGHT,22 SARGENT STREET,NEW FARM,QLD,4005,153.04587778,-27.47361748
230,NORTH WEST PRIVATE HOSPITAL (QLD),PRIVATE OVERNIGHT,137 FLOCKTON STREET,EVERTON PARK,QLD,4053,152.99304287,-27.39405634
231,CURRUMBIN CLINIC,PRIVATE OVERNIGHT,37 BILINGA STREET,CURRUMBIN,QLD,4223,153.48703683,-28.13318849
232,PINDARA PRIVATE HOSPITAL,PRIVATE OVERNIGHT,ALLCHURCH AVENUE,BENOWA,QLD,4217,153.39348006,-28.0073986799999
233,NAMBOUR SELANGOR PRIVATE HOSPITAL,PRIVATE OVERNIGHT,62 NETHERTON STREET,NAMBOUR,QLD,4560,152.95637304,-26.61911441
234,ST ANDREW'S IPSWICH PRIVATE HOSPITAL,PRIVATE OVERNIGHT,CNR RODERICK AND PRING STREET,IPSWICH,QLD,4305,152.76315498,-27.6187671
235,ST ANDREW'S TOOWOOMBA HOSPITAL,PRIVATE OVERNIGHT,280 NORTH STREET,TOOWOOMBA,QLD,4350,151.93434694,-27.5400334399999
236,HILLCREST - ROCKHAMPTON PRIVATE HOSPITAL,PRIVATE OVERNIGHT,4 TALFORD STREET,ROCKHAMPTON,QLD,4700,150.49607403,-23.37759382
237,ST ANDREW'S WAR MEMORIAL HOSPITAL,PRIVATE OVERNIGHT,"457 WICKHAM TERRACE & GROUND FLOOR & LEVEL 4, 33 NORTH STREET",SPRING HILL,QLD,4000,153.0210184,-27.4613125499999
238,PINE RIVERS PRIVATE HOSPITAL,PRIVATE OVERNIGHT,34 DIXON STREET,STRATHPINE,QLD,4500,152.99490243,-27.30850027
239,ST VINCENT'S PRIVATE HOSPITAL TOOWOOMBA,PRIVATE OVERNIGHT,22-36 SCOTT STREET,TOOWOOMBA,QLD,4350,151.97206762,-27.56665062
240,SUNNYBANK PRIVATE HOSPITAL,PRIVATE OVERNIGHT,245 MCCULLOUGH STREET,SUNNYBANK,QLD,4109,153.06143081,-27.5724448399999
241,PENINSULA PRIVATE HOSPITAL (QLD),PRIVATE OVERNIGHT,CNR GEORGE AND FLORENCE STREET,KIPPA-RING,QLD,4021,153.09308043,-27.2306903799999
242,MATER PRIVATE HOSPITAL TOWNSVILLE (HYDE PARK CAMPUS),PRIVATE OVERNIGHT,12-14 OXFORD STREET,HYDE PARK,QLD,4812,146.79897252,-19.2765070799999
243,TOOWONG PRIVATE HOSPITAL,PRIVATE OVERNIGHT,496 MILTON ROAD,TOOWONG,QLD,4066,152.99170281,-27.4772747499999
244,THE WESLEY HOSPITAL,PRIVATE OVERNIGHT,451 CORONATION DRIVE,AUCHENFLOWER,QLD,4066,152.99796965,-27.47832885
245,BURNSIDE HOSPITAL TOORAK GARDENS,PRIVATE OVERNIGHT,120 KENSINGTON ROAD,TOORAK GARDENS,SA,5065,138.63858811,-34.9274215999999
246,CALVARY NORTH ADELAIDE HOSPITAL,PRIVATE OVERNIGHT,89 STRANGWAYS TERRACE,NORTH ADELAIDE,SA,5006,138.58872317,-34.91004178
247,CALVARY CENTRAL DISTRICTS HOSPITAL,PRIVATE OVERNIGHT,25-37 JARVIS ROAD,ELIZABETH VALE,SA,5112,138.6562325,-34.75547489
248,GLENELG COMMUNITY HOSPITAL INC,PRIVATE OVERNIGHT,5 FARRELL STREET,GLENELG SOUTH,SA,5045,138.51222367,-34.98994772
249,GRIFFITH REHABILITATION HOSPITAL,PRIVATE OVERNIGHT,13 DUNROBIN ROAD,HOVE,SA,5048,138.5238602,-35.0102520299999
250,RAMSAY DAY CLINIC KAHLYN,PRIVATE SAME DAY,40 BRIANT ROAD,MAGILL,SA,5072,138.66990753,-34.91689345
251,NORTH EASTERN COMMUNITY HOSPITAL,PRIVATE OVERNIGHT,580 LOWER NORTH EAST ROAD,CAMPBELLTOWN,SA,5074,138.6619951,-34.88254333
252,ST ANDREW'S HOSPITAL INC,PRIVATE OVERNIGHT,350 SOUTH TERRACE & 321 SOUTH TERRACE,ADELAIDE,SA,5000,138.61495326,-34.93421262
253,STIRLING HOSPITAL INC,PRIVATE OVERNIGHT,20 MILAN TERRACE,STIRLING,SA,5152,138.71486384,-35.00737315
254,RAMSAY CLINIC ADELAIDE,PRIVATE OVERNIGHT,33 PARK TERRACE,GILBERTON,SA,5081,138.61349041,-34.90658116
255,ALBANY COMMUNITY HOSPICE,PRIVATE OVERNIGHT,30 WARDEN AVENUE,ALBANY,WA,6330,117.90474842,-35.00322893
256,ATTADALE REHABILITATION HOSPITAL,PRIVATE OVERNIGHT,21 HISLOP ROAD,ATTADALE,WA,6156,115.81067043,-32.02972971
257,BETHESDA HOSPITAL,PRIVATE OVERNIGHT,25 QUEENSLEA DRIVE,CLAREMONT,WA,6010,115.77880164,-31.9878506599999
258,GLENGARRY PRIVATE HOSPITAL,PRIVATE OVERNIGHT,53 ARNISDALE ROAD,DUNCRAIG,WA,6023,115.78482736,-31.83424237
259,HOLLYWOOD PRIVATE HOSPITAL,PRIVATE OVERNIGHT,MONASH AVENUE,NEDLANDS,WA,6009,115.80913979,-31.9696724999999
260,MOUNT HOSPITAL,PRIVATE OVERNIGHT,150 MOUNTS BAY ROAD,PERTH,WA,6000,115.84532913,-31.95835633
261,THE PARK PRIVATE HOSPITAL,PRIVATE OVERNIGHT,14 ALVAN STREET,MOUNT LAWLEY,WA,6050,115.87438042,-31.9343395399999
262,ABBOTSFORD PRIVATE HOSPITAL,PRIVATE OVERNIGHT,61-69 CAMBRIDGE STREET,WEST LEEDERVILLE,WA,6007,115.83738902,-31.94100129
263,PERTH CLINIC,PRIVATE OVERNIGHT,29 HAVELOCK STREET,WEST PERTH,WA,6005,115.84313083,-31.95087444
264,SOUTHBANK DAY SURGERY,PRIVATE SAME DAY,38 MEADOWVALE AVENUE,SOUTH PERTH,WA,6151,115.87179935,-31.9759226899999
265,WAIKIKI PRIVATE HOSPITAL,PRIVATE OVERNIGHT,221 WILLMOT DRIVE,WAIKIKI,WA,6169,115.76314749,-32.31055169
266,SOUTH PERTH HOSPITAL,PRIVATE OVERNIGHT,76 SOUTH TERRACE,SOUTH PERTH,WA,6151,115.86375757,-31.9880991799999
267,ST JOHN OF GOD MT LAWLEY HOSPITAL,PRIVATE OVERNIGHT,THIRLMERE ROAD,MOUNT LAWLEY,WA,6050,115.88492125,-31.9367094999999
268,ST JOHN OF GOD BUNBURY HOSPITAL,PRIVATE OVERNIGHT,CNR ROBERTSON DRIVE & BUSSELL HIGHWAY,BUNBURY,WA,6230,115.64835111,-33.36796473
269,ST JOHN OF GOD GERALDTON HOSPITAL,PRIVATE OVERNIGHT,12 HERMITAGE STREET,GERALDTON,WA,6530,114.61592282,-28.78397107
270,"ST JOHN OF GOD HOSPITAL, SUBIACO",PRIVATE OVERNIGHT,12 SALVADO ROAD,SUBIACO,WA,6008,115.82624541,-31.94159991
271,ST JOHN OF GOD MURDOCH HOSPITAL,PRIVATE OVERNIGHT,100 MURDOCH DRIVE,MURDOCH,WA,6150,115.84481314,-32.0678357799999
272,CALVARY - LENAH VALLEY HOSPITAL,PRIVATE OVERNIGHT,49 AUGUSTA ROAD,LENAH VALLEY,TAS,7008,147.30360377,-42.8659351599999
273,THE HOBART CLINIC,PRIVATE OVERNIGHT,31 CHIPMANS ROAD,ROKEBY,TAS,7019,147.43558885,-42.90462202
274,HOBART PRIVATE HOSPITAL,PRIVATE OVERNIGHT,CORNER ARGYLE STREET AND COLLINS STREET,HOBART,TAS,7001,147.32988453,-42.88075448
275,NORTH WEST PRIVATE HOSPITAL (TAS),PRIVATE OVERNIGHT,21 BRICKPORT ROAD,BURNIE,TAS,7320,145.87954897,-41.04598232
276,CALVARY - ST JOHNS HOSPITAL,PRIVATE OVERNIGHT,30 CASCADE ROAD,SOUTH HOBART,TAS,7000,147.30617836,-42.89545207
277,CALVARY ST LUKES HOSPITAL,PRIVATE OVERNIGHT,24 LYTTLETON STREET,LAUNCESTON,TAS,7250,147.14950142,-41.43392822
278,DARWIN PRIVATE HOSPITAL,PRIVATE OVERNIGHT,ROCKLANDS DRIVE,TIWI,NT,0810,130.88180959,-12.3573295899999
279,PARKVIEW DAY SURGERY,PRIVATE SAME DAY,215 GREENHILL ROAD,EASTWOOD,SA,5063,138.62162216,-34.94073801
280,ILLAWARRA PRIVATE CANCER CARE & RESEARCH CENTRE,PRIVATE SAME DAY,35 DENISON STREET,WOLLONGONG,NSW,2500,150.88836368,-34.4241500099999
281,WESTMEAD PRIVATE HOSPITAL,PRIVATE OVERNIGHT,CNR MONS & DARCY ROADS,WESTMEAD,NSW,2145,150.98235691,-33.80286504
282,MATER PRIVATE HOSPITAL REDLAND,PRIVATE OVERNIGHT,WEIPPIN STREET,CLEVELAND,QLD,4163,153.25043003,-27.54080499
283,PACIFIC PRIVATE HOSPITAL,PRIVATE SAME DAY,"LEVEL 1 & 2, 119-123 NERANG STREE",SOUTHPORT,QLD,4215,153.40782866,-27.97040598
284,SOUTHERN SUBURBS DAY PROCEDURE CENTRE,PRIVATE SAME DAY,47 REGENT STREET,KOGARAH,NSW,2217,151.13499024,-33.9618586899999
285,BARINGA PRIVATE HOSPITAL,PRIVATE OVERNIGHT,31 MACKAYS ROAD,COFFS HARBOUR,NSW,2450,153.10317375,-30.27887442
286,JOHN FAWKNER PRIVATE HOSPITAL,PRIVATE OVERNIGHT,275 MORELAND ROAD,COBURG,VIC,3058,144.95839172,-37.7543733599999
287,BEDFORD DAY SURGERY,PRIVATE SAME DAY,1284 SOUTH ROAD,CLOVELLY PARK,SA,5042,138.57521874,-35.00744087
288,PENINSULA SLEEP CLINIC,PRIVATE OVERNIGHT,"LEVEL 2, BUILDING 1, 49 FRENCHS FOREST ROAD",FRENCHS FOREST,NSW,2086,151.2400208,-33.7510045999999
289,THE CATARACT CLINIC (AUST),PRIVATE SAME DAY,1 MCLAREN STREET,NORTH SYDNEY,NSW,2060,151.20526669,-33.83468247
290,MSI MELBOURNE,PRIVATE SAME DAY,26B DICKENS STREET,ELWOOD,VIC,3184,144.98203091,-37.8731414599999
291,EASTERN ENDOSCOPY CENTRE,PRIVATE SAME DAY,120 BIRKDALE ROAD,BIRKDALE,QLD,4159,153.21285467,-27.49431542
292,FERTILITY CONTROL CLINIC,PRIVATE SAME DAY,116-118 WELLINGTON PARADE,EAST MELBOURNE,VIC,3002,144.9861709,-37.81625367
293,ST ALBANS ENDOSCOPY CENTRE,PRIVATE SAME DAY,328-330 STATION ROAD,ST ALBANS,VIC,3021,144.77953445,-37.7440302699999
294,MURDOCH SURGICENTRE,PRIVATE SAME DAY,100 MURDOCH DRIVE,MURDOCH,WA,6150,115.84407152,-32.0691897
295,ST JOHN OF GOD FRANKSTON REHABILITATION HOSPITAL,PRIVATE OVERNIGHT,255-265 CRANBOURNE ROAD,FRANKSTON,VIC,3199,145.15592878,-38.15303039
296,IPSWICH HOSPICE CARE,PRIVATE OVERNIGHT,"37 CHERMSIDE ROAD, EASTERN HEIGHTS",IPSWICH,QLD,4305,152.76948288,-27.62655656
297,PACIFIC DAY SURGERY CENTRE,PRIVATE SAME DAY,38 MISTERTON STREET,FORTITUDE VALLEY,QLD,4006,153.03230568,-27.45363215
298,STONNINGTON DAY SURGERY,PRIVATE SAME DAY,LEVEL 1; 253 WATTLETREE ROAD,MALVERN,VIC,3144,145.03937783,-37.8636921199999
299,BAYSIDE DAY PROCEDURE AND SPECIALIST CENTRE,PRIVATE SAME DAY,141 CRANBOURNE ROAD,FRANKSTON,VIC,3199,145.1433784,-38.14818775
300,NGALA FAMILY SERVICES,PRIVATE OVERNIGHT,9 GEORGE STREET,KENSINGTON,WA,6151,115.88288377,-31.98825912
301,NOOSA HOSPITAL,PRIVATE OVERNIGHT,111 GOODCHAP STREET,NOOSAVILLE,QLD,4566,153.0463057,-26.40321125
302,ASHFORD COMMUNITY HOSPITAL,PRIVATE OVERNIGHT,55 ANZAC HIGHWAY,ASHFORD,SA,5035,138.57672725,-34.94813349
303,FLINDERS PRIVATE HOSPITAL,PRIVATE OVERNIGHT,1 FLINDERS DRIVE,BEDFORD PARK,SA,5042,138.56955493,-35.02037954
304,MEMORIAL HOSPITAL,PRIVATE OVERNIGHT,SIR EDWIN SMITH AVENUE,NORTH ADELAIDE,SA,5006,138.60007689,-34.9129672399999
305,ADELAIDE DAY SURGERY,PRIVATE SAME DAY,18 NORTH TERRACE,ADELAIDE,SA,5000,138.58887174,-34.92264268
306,THE GLEN ENDOSCOPY CENTRE,PRIVATE SAME DAY,302 SPRINGVALE ROAD,GLEN WAVERLEY,VIC,3150,145.16517999,-37.8846417399999
307,ALEXANDRIA SPECIALIST DAY HOSPITAL,PRIVATE SAME DAY,15 BOWDEN STREET,ALEXANDRIA,NSW,2015,151.19625354,-33.9049243499999
308,GENEA LIVERPOOL,PRIVATE SAME DAY,173-175 BIGGE STREET,LIVERPOOL,NSW,2170,150.92690036,-33.92183799
309,NOOSA SURGICAL & ENDOSCOPY CENTRE,PRIVATE SAME DAY,22 MARY STREET,NOOSAVILLE,QLD,4566,153.06493689,-26.3999391899999
310,PAYNEHAM DIALYSIS CLINIC,PRIVATE SAME DAY,2 PORTRUSH ROAD,PAYNEHAM,SA,5070,138.64005467,-34.89642401
311,VISION CENTRE DAY SURGERY,PRIVATE SAME DAY,95 NERANG STREET,SOUTHPORT,QLD,4215,153.40922867,-27.96982071
312,HAMILTON DAY SURGERY CENTRE,PRIVATE SAME DAY,76 JENNER PARADE,HAMILTON SOUTH,NSW,2303,151.75347972,-32.9322430299999
313,SPENDELOVE PRIVATE HOSPITAL,PRIVATE OVERNIGHT,24 SPENDELOVE AVENUE,SOUTHPORT,QLD,4215,153.40836838,-27.9735945699999
314,MAITLAND PRIVATE HOSPITAL,PRIVATE OVERNIGHT,173 CHISHOLM ROAD,EAST MAITLAND,NSW,2323,151.59791556,-32.7652184199999
315,BUDERIM GASTROENTEROLOGY CENTRE,PRIVATE SAME DAY,"SUITE 5, 102 WISES ROAD",MAROOCHYDORE,QLD,4558,153.08488001,-26.67178224
316,FOCUS EYE CENTRE,PRIVATE SAME DAY,2 MIDDLE STREET,KINGSFORD,NSW,2032,151.22739446,-33.92094894
317,ST VINCENT'S PRIVATE HOSPITAL NORTHSIDE,PRIVATE OVERNIGHT,627 RODE ROAD,CHERMSIDE,QLD,4032,153.02372821,-27.39118912
318,PITTWATER DAY SURGERY,PRIVATE SAME DAY,202/20 BUNGAN STREET,MONA VALE,NSW,2103,151.30177945,-33.67814764
319,MACKAY SPECIALIST DAY HOSPITAL,PRIVATE SAME DAY,85-87 WILLETTS ROAD,NORTH MACKAY,QLD,4740,149.16516943,-21.1293847499999
320,EDEN PRIVATE HOSPITAL,PRIVATE OVERNIGHT,50 MAPLE STREET,COOROY,QLD,4563,152.90887148,-26.41947554
321,SYDNEY DAY SURGERY,PRIVATE SAME DAY,213-219 DARLINGHURST ROAD,DARLINGHURST,NSW,2010,151.22097607,-33.87643802
322,MSI BRISBANE,PRIVATE SAME DAY,8 CAMPBELL STREET,BOWEN HILLS,QLD,4006,153.03716135,-27.44795712
323,LOGAN ENDOSCOPY SERVICES,PRIVATE SAME DAY,UNIT 2/3276 BEAUDESERT ROAD,BROWNS PLAINS,QLD,4118,153.03885114,-27.6591613699999
324,SURRY HILLS DAY HOSPITAL,PRIVATE SAME DAY,573 CROWN STREET,SURRY HILLS,NSW,2010,151.2127041,-33.89099864
325,EASTSIDE ENDOSCOPY CENTRE,PRIVATE SAME DAY,33 WANTIRNA ROAD,RINGWOOD,VIC,3134,145.22751192,-37.819785
326,BALLARAT DAY PROCEDURE CENTRE,PRIVATE SAME DAY,1119-1123 HOWITT STREET,WENDOUREE,VIC,3355,143.83214288,-37.54082427
327,BALLINA DAY SURGERY,PRIVATE SAME DAY,"SUITE 6, 46 TAMAR STREET",BALLINA,NSW,2478,153.5632377,-28.8707098199999
328,LINDFIELD RENAL CARE CENTRE,PRIVATE SAME DAY,280 PACIFIC HIGHWAY,LINDFIELD,NSW,2070,151.16827089,-33.77744997
329,RIVERINA CANCER CARE CENTRE,PRIVATE SAME DAY,31 MEURANT AVENUE,WAGGA WAGGA,NSW,2650,147.35200368,-35.1197356499999
330,LADY BJELKE-PETERSEN COMMUNITY HOSPITAL,PRIVATE OVERNIGHT,31 MARKWELL STREET,KINGAROY,QLD,4610,151.83698692,-26.54299465
331,FOREST HILL DIALYSIS CLINIC,PRIVATE SAME DAY,"SHOPS 26 & 27 FOREST HILL CHASE, 69 MAHONEYS ROAD",FOREST HILL,VIC,3131,145.16647885,-37.83626211
332,COBURG ENDOSCOPY CENTRE,PRIVATE SAME DAY,15 MUNRO STREET,COBURG,VIC,3058,144.9648596,-37.7450083099999
333,KNOX DAY HOSPITAL,PRIVATE SAME DAY,520 MOUNTAIN HIGHWAY,BAYSWATER,VIC,3153,145.24892431,-37.84408567
334,HEALTHWOODS ENDOSCOPY CENTRE,PRIVATE SAME DAY,53 COWPER STREET,GRANVILLE,NSW,2142,151.01249532,-33.83138545
335,SYDNEY RETINA CLINIC & DAY SURGERY,PRIVATE SAME DAY,"LEVEL 13, 187 MACQUARIE STREET",SYDNEY,NSW,2000,151.21213477,-33.86700615
336,REPROMED DAY SURGERY,PRIVATE SAME DAY,180 FULLARTON ROAD,DULWICH,SA,5065,138.62477149,-34.9372577299999
337,MADISON DAY SURGERY,PRIVATE SAME DAY,"SUITE 3, 25-29 HUNTER STREET",HORNSBY,NSW,2077,151.10030345,-33.7032234
338,TOOWOOMBA HOSPICE,PRIVATE OVERNIGHT,57B O'QUINN STREET,TOOWOOMBA,QLD,4350,151.93392202,-27.56748133
339,BARTON PRIVATE HOSPITAL,PRIVATE OVERNIGHT,"2/9 SYDNEY AVENUE & 18 NATIONAL CIRCUIT, (BARTON WARD AT HOTEL REALM)",BARTON,ACT,2600,149.13266163,-35.31257629
340,KEW ENDOSCOPY CENTRE,PRIVATE SAME DAY,"SUITE 5, 828 HIGH STREET",KEW EAST,VIC,3102,145.06248615,-37.79448439
341,TOWNSVILLE DAY SURGERY,PRIVATE SAME DAY,"1 MARTINEZ AVENUE, WEST END",TOWNSVILLE,QLD,4810,146.7828203,-19.2688897699999
342,EPPING SURGERY CENTRE,PRIVATE SAME DAY,34 BORONIA AVENUE,EPPING,NSW,2121,151.07130338,-33.77640286
343,COOLENBERG DAY SURGERY,PRIVATE SAME DAY,60 LAKE ROAD,PORT MACQUARIE,NSW,2444,152.90947004,-31.43975955
344,RIVERCITY PRIVATE HOSPITAL,PRIVATE OVERNIGHT,"FLOOR 2, 401 MILTON ROAD",AUCHENFLOWER,QLD,4066,152.99512662,-27.4734783
345,SPECIALIST SURGICENTRE DOCKLANDS,PRIVATE SAME DAY,"TENANCY 2, 22 RAKAIA WAY",DOCKLANDS,VIC,3008,144.94125369,-37.81459726
346,MSI PERTH,PRIVATE SAME DAY,8 SAYER STREET,MIDLAND,WA,6056,116.01051979,-31.89262596
347,MSI CANBERRA,PRIVATE SAME DAY,"LEVEL 1, ACT HEALTH BUILDING, MOORE & ALINGA STREETS",CANBERRA CITY,ACT,2601,149.12767176,-35.27797936
348,MALVERN DIALYSIS CLINIC,PRIVATE SAME DAY,1133 MALVERN ROAD,MALVERN,VIC,3144,145.03067711,-37.85142559
349,CHERMSIDE DIALYSIS CLINIC,PRIVATE SAME DAY,671 GYMPIE ROAD,CHERMSIDE,QLD,4032,153.03169971,-27.39099535
350,DEXTRA SURGICAL,PRIVATE SAME DAY,83 KENSINGTON ROAD,NORWOOD,SA,5067,138.63059065,-34.92722879
351,HOPEWELL HOSPICE,PRIVATE OVERNIGHT,11 DUNKIRK CLOSE,ARUNDEL,QLD,4214,153.38076723,-27.93895421
352,NAMBOUR DAY SURGERY,PRIVATE SAME DAY,115 HOWARD STREET,NAMBOUR,QLD,4560,152.9640903,-26.6262481599999
353,RAMSAY SURGICAL CENTRE GLENFERRIE,PRIVATE OVERNIGHT,29 HILDA CRESCENT,HAWTHORN,VIC,3122,145.03142764,-37.81940444
354,WESTMEAD REHABILITATION HOSPITAL,PRIVATE OVERNIGHT,7 COLEMAN STREET,MERRYLANDS,NSW,2160,150.98106316,-33.81929021
355,HERVEY BAY SURGICAL HOSPITAL,PRIVATE OVERNIGHT,CNR O'ROURKE STREET & BOAT HARBOUR DRIVE,PIALBA,QLD,4655,152.83481346,-25.2869787399999
356,EYE-TECH DAY SURGERIES SOUTHSIDE,PRIVATE SAME DAY,22-26 SANDERS STREET,UPPER MOUNT GRAVATT,QLD,4122,153.08203768,-27.5576420799999
357,SOLE VITA SURGERY,PRIVATE OVERNIGHT,7 PHIPPS CLOSE,DEAKIN,ACT,2600,149.09436001,-35.3262615099999
358,EPWORTH EASTERN HOSPITAL (1 of 3 campuses),PRIVATE OVERNIGHT,1 ARNOLD STREET,BOX HILL,VIC,3128,145.11921479,-37.8147952799999
359,MANNINGHAM PRIVATE HOSPITAL,PRIVATE SAME DAY,"SUITE 304, LEVEL 3, 200 HIGH STREET",TEMPLESTOWE LOWER,VIC,3107,145.11563457,-37.77347033
360,ST STEPHEN'S HOSPITAL HERVEY BAY,PRIVATE OVERNIGHT,1 MEDICAL PLACE,URRAWEEN,QLD,4655,152.82353479,-25.2998276499999
361,KOGARAH PRIVATE HOSPITAL,PRIVATE SAME DAY,"LEVEL 1, 1 DERBY STREET",KOGARAH,NSW,2217,151.13227658,-33.96567987
362,SUTHERLAND HEART CLINIC,PRIVATE OVERNIGHT,"LEVEL 2, THE SUTHERLAND HOSPITAL, THE KINGSWAY",CARINGBAH,NSW,2229,151.11513088,-34.0372766799999
363,SPECIALIST SURGICENTRE GEELONG,PRIVATE SAME DAY,200 MALOP STREET,GEELONG,VIC,3220,144.3664193,-38.14915115
364,BENTLEIGH SURGICENTRE,PRIVATE SAME DAY,157 JASPER ROAD,BENTLEIGH,VIC,3204,145.04112356,-37.92024054
365,VICTORIA PARADE SURGERY CENTRE,PRIVATE SAME DAY,"LEVEL 1, 100 VICTORIA PARADE",EAST MELBOURNE,VIC,3002,144.97475412,-37.80851623
366,HOBSON HEALTHCARE WERRIBEE,PRIVATE SAME DAY,179 PRINCES HIGHWAY,WERRIBEE,VIC,3030,144.68644315,-37.89057509
367,CANBERRA IMAGING GROUP,PRIVATE SAME DAY,173 STRICKLAND CRESCENT,DEAKIN,ACT,2600,149.09606483,-35.31899993
368,KAWANA PRIVATE HOSPITAL,PRIVATE OVERNIGHT,"SUITE 14, LEVEL 1, 5 INNOVATION PARKWAY",BIRTINYA,QLD,4575,153.12216785,-26.7338230899999
369,HEALTHE CARE MARIAN CENTRE,PRIVATE OVERNIGHT,187 CAMBRIDGE STREET,WEMBLEY,WA,6014,115.82398038,-31.94109993
370,WESTPOINT ENDOSCOPY DAY HOSPITAL,PRIVATE SAME DAY,243 HEATHS ROAD,WERRIBEE,VIC,3030,144.67974727,-37.87748456
371,VICTORIAN GUT CENTRE BUNDOORA,PRIVATE SAME DAY,119 PLENTY ROAD,BUNDOORA,VIC,3083,145.06183438,-37.69250299
372,GLEN EIRA DAY SURGERY,PRIVATE SAME DAY,544 HAWTHORN ROAD,CAULFIELD SOUTH,VIC,3162,145.01921362,-37.9004346799999
373,ESSENDON DAY PROCEDURE CENTRE,PRIVATE SAME DAY,"LEVEL 1, 665 MOUNT ALEXANDER ROAD",MOONEE PONDS,VIC,3039,144.92316999,-37.7655010999999
374,KINGS PARK DAY HOSPITAL,PRIVATE SAME DAY,"SUITE 1, 1 WALKER AVENUE",WEST PERTH,WA,6005,115.83604893,-31.9504786099999
375,CAMPBELLTOWN PRIVATE HOSPITAL,PRIVATE OVERNIGHT,42 PARKSIDE CRESCENT,CAMPBELLTOWN,NSW,2560,150.80498969,-34.07557106
376,GENEA CANBERRA,PRIVATE SAME DAY,SUITE 17B AND UNIT 28/2 KING STREET,DEAKIN,ACT,2600,149.09311145,-35.32251173
377,DARWIN DAY SURGERY,PRIVATE SAME DAY,LEVEL 1/7B GSELL STREET,WANGURI,NT,0810,130.88484019,-12.37569209
378,CONCEPT DAY HOSPITAL,PRIVATE SAME DAY,218 NICHOLSON ROAD,SUBIACO,WA,6008,115.81443896,-31.95605928
379,NORTH SHORE SPECIALIST DAY HOSPITAL,PRIVATE SAME DAY,"LEVEL 3, 176 PACIFIC HIGHWAY",GREENWICH,NSW,2065,151.18718657,-33.8236633499999
380,CALVARY - ST VINCENTS HOSPITAL,PRIVATE OVERNIGHT,5 FREDERICK STREET,LAUNCESTON,TAS,7250,147.14268448,-41.44050578
381,ICON CANCER CENTRE CHERMSIDE,PRIVATE SAME DAY,"CHERMSIDE MEDICAL CENTRE, 930-956 GYMPIE ROAD",CHERMSIDE,QLD,4032,153.02954543,-27.3822810099999
382,BURNSIDE HOSPITAL STEPNEY,PRIVATE OVERNIGHT,32 PAYNEHAM ROAD,STEPNEY,SA,5069,138.62499124,-34.9136225899999
383,WEST COAST ENDOSCOPY CENTRE,PRIVATE SAME DAY,1/32 PIMLICO PLACE,JOONDALUP,WA,6027,115.76798123,-31.73685662
384,CAMBRIDGE DAY SURGERY,PRIVATE SAME DAY,"SUITE 12, 178 CAMBRIDGE STREET",WEMBLEY,WA,6014,115.82473835,-31.94044249
385,SIGHT FOUNDATION THEATRE,PRIVATE SAME DAY,"SYDNEY EYE HOSPITAL, LEVEL 3 CLINICAL BUILDING, 8 MACQUARIE STREET",SYDNEY,NSW,2000,151.21275027,-33.8682003599999
386,CHERMSIDE DAY HOSPITAL,PRIVATE SAME DAY,"SUITE 9, CHERMSIDE MEDICAL COMPLEX, 956 GYMPIE ROAD",CHERMSIDE,QLD,4032,153.02941053,-27.3819928999999
387,ICON CANCER CENTRE SOUTHPORT,PRIVATE SAME DAY,"LEVEL 9, PREMION PLACE, 39 WHITE STREET",SOUTHPORT,QLD,4215,153.41100256,-27.9723630199999
388,CORYMBIA DAY HOSPITAL,PRIVATE SAME DAY,92 DAVID STREET,DANDENONG,VIC,3175,145.2170594,-37.97723909
389,BENDIGO DAY SURGERY,PRIVATE SAME DAY,1 CHUM STREET,BENDIGO,VIC,3554,144.26151256,-36.76199637
390,ULLADULLA ENDOSCOPY & MEDICAL CENTRE,PRIVATE SAME DAY,111 PRINCES HIGHWAY,ULLADULLA,NSW,2539,150.47349722,-35.35885859
391,THE BAYS HOSPITAL (1 of 2 campuses),PRIVATE OVERNIGHT,VALE STREET,MORNINGTON,VIC,3931,145.04209529,-38.2236769899999
392,GLEN IRIS PRIVATE,PRIVATE SAME DAY,314 WARRIGAL ROAD,GLEN IRIS,VIC,3146,145.09383944,-37.85827373
393,THE TENNYSON CENTRE DAY HOSPITAL,PRIVATE SAME DAY,"TENANCY 18, LEVEL 1, 520 SOUTH ROAD",KURRALTA PARK,SA,5037,138.57098175,-34.94860576
394,MOUNT HAWTHORN DAY HOSPITAL,PRIVATE SAME DAY,"SUITE 4, 1ST FLOOR 416-418 OXFORD STREET",MOUNT HAWTHORN,WA,6016,115.84152968,-31.92276836
395,NORTH MELBOURNE RENAL CARE CENTRE,PRIVATE OVERNIGHT,"LEVEL 1, 185 - 187 BOUNDARY ROAD",NORTH MELBOURNE,VIC,3051,144.93990766,-37.78864755
396,SKIN CANCER DAY SURGERY,PRIVATE SAME DAY,19 CLEVELAND ROAD,ASHWOOD,VIC,3147,145.10527055,-37.8681281899999
397,NORWEST PRIVATE HOSPITAL,PRIVATE OVERNIGHT,"11  NORBRIK DRIVE, NORWEST BUSINESS PARK",BELLA VISTA,NSW,2153,150.95444536,-33.7452654099999
398,FAR NORTH DAY HOSPITAL,PRIVATE SAME DAY,"GROUND LEVELS 2,3 & 4, 58-60 McLEOD STREET",CAIRNS,QLD,4870,145.77176871,-16.92283337
399,GENEA NORTHWEST,PRIVATE SAME DAY,"LEVEL 1, SUITE 101, 10 NORBRICK DRIVE",BELLA VISTA,NSW,2153,150.95287845,-33.7439995299999
400,GENESISCARE FRENCHS FOREST,PRIVATE SAME DAY,49 FRENCHS FOREST,FRENCHS FOREST,NSW,2086,151.23988618,-33.75205483
401,SUBIACO PRIVATE HOSPITAL,PRIVATE OVERNIGHT,"SUITE 9, 1 SALVADO ROAD",SUBIACO,WA,6008,115.8259342,-31.94320942
402,MACQUARIE UNIVERSITY HOSPITAL,PRIVATE OVERNIGHT,3 TECHNOLOGY PLACE,MACQUARIE PARK,NSW,2109,151.11797229,-33.77371661
403,RAMSAY CLINIC CAIRNS,PRIVATE OVERNIGHT,253 SHERIDAN STREET,NORTH CAIRNS,QLD,4870,145.76209154,-16.91082684
404,SOUTHPORT DAY HOSPITAL,PRIVATE SAME DAY,98A MARINE PARADE,SOUTHPORT,QLD,4215,153.4130434,-27.96251147
405,CANBERRA PRIVATE HOSPITAL,PRIVATE OVERNIGHT,"EQUINOX BUSINESS PARK, BUILDING 2 LEVEL 2/3, 70 KENT STREET",DEAKIN,ACT,2600,149.09694808,-35.32005836
406,LIVERPOOL EYE SURGERY,PRIVATE SAME DAY,"GROUND FLOOR, 1-7 MOORE STREET",LIVERPOOL,NSW,2170,150.9266467,-33.92263216
407,THE HILLS CLINIC,PRIVATE OVERNIGHT,3 MCCAUSLAND PLACE,KELLYVILLE,NSW,2155,150.95265873,-33.71699654
408,GOLD COAST EYE HOSPITAL,PRIVATE SAME DAY,"TENANCY 4110, LEVEL 3, ROBINA TOWN CENTRE DRIVE",ROBINA TOWN CENTRE,QLD,4230,153.38429887,-28.07760214
409,MELBOURNE IVF PROCEDURE CENTRE,PRIVATE SAME DAY,"GROUND FLOOR, 23 CLARENDON ST",EAST MELBOURNE,VIC,3002,144.9861554,-37.8075984499999
410,HOBSON HEALTHCARE SYDENHAM,PRIVATE SAME DAY,566 MELTON HIGHWAY,SYDENHAM,VIC,3037,144.7586359,-37.6932019499999
411,NEPHROCARE NEWCASTLE DIALYSIS CLINIC,PRIVATE SAME DAY,"SUITE 402, LEVEL 4, 670 HUNTER STREET",NEWCASTLE,NSW,2300,151.76478108,-32.9266078699999
412,CHARLESTOWN PRIVATE HOSPITAL,PRIVATE OVERNIGHT,"LEVEL 3, 250 PACIFIC HWY",CHARLESTOWN,NSW,2290,151.69759253,-32.9600625799999
413,CENTRAL COAST DAY HOSPITAL - ERINA,PRIVATE SAME DAY,"SUITE 1, 2 ILYA AVENUE",ERINA,NSW,2250,151.38376697,-33.4391829799999
414,MIRANDA DAY SURGERY,PRIVATE SAME DAY,25/20-24 GIBBS ST,MIRANDA,NSW,2228,151.10293544,-34.03696271
415,MACQUARIE ST DAY SURGERY,PRIVATE SAME DAY,"LEVEL 11, 187 MACQUARIE ST",SYDNEY,NSW,2000,151.21203961,-33.8670014099999
416,BUNBURY DAY HOSPITAL,PRIVATE SAME DAY,140 SPENCER ST,BUNBURY,WA,6230,115.6396524,-33.34043365
417,ICON CANCER CENTRE ADELAIDE,PRIVATE SAME DAY,"SUITE 10, FIRST FLOOR, TENNYSON CENTRE, 520 SOUTH ROAD",KURRALTA PARK,SA,5037,138.57097075,-34.94859996
418,WARATAH PRIVATE HOSPITAL,PRIVATE OVERNIGHT,"LEVEL 1, 31 DORA STREET",HURSTVILLE,NSW,2220,151.1005951,-33.96448486
419,EPWORTH HAWTHORN,PRIVATE OVERNIGHT,46-52 BURWOOD ROAD,HAWTHORN,VIC,3122,145.02271743,-37.8214736699999
420,GOONAWARRA DAY HOSPITAL,PRIVATE SAME DAY,1-11 DORNOCH DRIVE,SUNBURY,VIC,3429,144.7496644,-37.57974265
421,IMAGING @ OLYMPIC PARK,PRIVATE SAME DAY,"AAMI PARK SUITE 2, 60 OLYMPIC BOULEVARD",MELBOURNE,VIC,3000,144.98431097,-37.82411611
422,NORTH LAKES DAY HOSPITAL,PRIVATE SAME DAY,7 ENDEAVOUR BOULEVARD,NORTH LAKES,QLD,4509,153.02192177,-27.2391517199999
423,OROMAX DAY SURGERY,PRIVATE SAME DAY,"LEVEL 2, 66 RUNDLE STREET",KENT TOWN,SA,5067,138.61942182,-34.9202842299999
424,SPEARWOOD HAEMODIALYSIS UNIT,PRIVATE SAME DAY,2-6 LANCASTER STREET,SPEARWOOD,WA,6163,115.78342319,-32.0953673299999
425,NORTH TAS DAY HOSPITAL,PRIVATE SAME DAY,23-27 CANNING STREET,LAUNCESTON,TAS,7250,147.14180566,-41.44234131
426,ACT ENDOSCOPY,PRIVATE SAME DAY,2/70 KENT STREET,DEAKIN,ACT,2600,149.0976008,-35.32005315
427,CASEY DAY HOSPITAL,PRIVATE SAME DAY,1A/30-32 VERDUN DRIVE,NARRE WARREN,VIC,3805,145.31442264,-38.0248647499999
428,CHRIS O'BRIEN LIFEHOUSE,PRIVATE OVERNIGHT,119-143 MISSENDEN ROAD,CAMPERDOWN,NSW,2050,151.18212776,-33.8907074599999
429,NEWCASTLE ENDOSCOPY CENTRE,PRIVATE SAME DAY,"SUITE 15, 20-22 SMITH STREET",CHARLESTOWN,NSW,2290,151.69746041,-32.96319719
430,GENESISCARE NORTH SHORE,PRIVATE SAME DAY,7 WESTBOURNE STREET,ST LEONARDS,NSW,2065,151.19052808,-33.82010729
431,BELLA VISTA DAY HOSPITAL,PRIVATE SAME DAY,"SUITE 102, 9 NORBRIK DRIVE",BELLA VISTA,NSW,2153,150.95385375,-33.74476277
432,ST JOHN OF GOD BURWOOD HOSPITAL,PRIVATE OVERNIGHT,13-21 GRANTHAM STREET,BURWOOD,NSW,2134,151.10052181,-33.86983722
433,WALCOTT STREET SURGICAL CENTRE,PRIVATE SAME DAY,41 WALCOTT STREET,MOUNT LAWLEY,WA,6050,115.87413399,-31.9365600799999
434,SOUTH COAST PRIVATE,PRIVATE OVERNIGHT,112 BURELLI STREET,WOLLONGONG,NSW,2500,150.89013741,-34.4260298299999
435,GENESISCARE SHENTON HOUSE,PRIVATE SAME DAY,57 SHENTON AVENUE,JOONDALUP,WA,6027,115.77066052,-31.74083688
436,WESTERN SYDNEY PRIVATE ONCOLOGY AND INFUSION CENTRE,PRIVATE SAME DAY,"LEVEL 2, WESTMEAD SPECIALIST CENTRE, 16-18 MONS ROAD",WESTMEAD,NSW,2145,150.98287598,-33.80202306
437,CANBERRA MICROSURGERY,PRIVATE SAME DAY,16 WILBOW STREET,PHILLIP,ACT,2606,149.08960532,-35.34588373
438,THE SKIN HOSPITAL (DARLINGHURST),PRIVATE SAME DAY,121 CROWN STREET,DARLINGHURST,NSW,2010,151.21578672,-33.87539075
439,CAMPSIE DAY SURGERY,PRIVATE SAME DAY,56 CAMPSIE STREET,CAMPSIE,NSW,2194,151.09893836,-33.9109755699999
440,ICON CANCER CENTRE TOWNSVILLE,PRIVATE SAME DAY,9-13 BAYSWATER ROAD,HYDE PARK,QLD,4812,146.79907616,-19.27651428
441,ROYAL REHAB PRIVATE RYDE,PRIVATE OVERNIGHT,235 MORRISON ROAD,RYDE,NSW,2112,151.10785507,-33.82177503
442,WYNDHAM CLINIC,PRIVATE OVERNIGHT,242A HOPPERS LANE & SUITE 21/242 HOPPERS LANE,WERRIBEE,VIC,3030,144.70117338,-37.88668353
443,SUNSHINE COAST UNIVERSITY PRIVATE HOSPITAL,PRIVATE OVERNIGHT,3 DOHERTY STREET,BIRTINYA,QLD,4575,153.11420977,-26.7444469499999
444,VISTA DAY SURGERY,PRIVATE SAME DAY,57 GREENHILL ROAD,WAYVILLE,SA,5034,138.59295965,-34.94199686
445,SKIN HEALTH INSTITUTE,PRIVATE SAME DAY,"LEVEL 1, 80 DRUMMOND STREET",CARLTON,VIC,3053,144.96801646,-37.8048240099999
446,RAMSAY CLINIC MACARTHUR,PRIVATE OVERNIGHT,92-96 DUMARESQ STREET,CAMPBELLTOWN,NSW,2560,150.81693948,-34.07201221
447,MACKAY PRIVATE HOSPITAL,PRIVATE OVERNIGHT,57 NORRIS ROAD,MOUNT PLEASANT,QLD,4740,149.16729831,-21.1138213099999
448,PORT MACQUARIE OPHTHALMIC SURGERY,PRIVATE SAME DAY,35 ACKROYD STREET,PORT MACQUARIE,NSW,2444,152.90069015,-31.4356413899999
449,NT MEDICAL SPECIALIST,PRIVATE OVERNIGHT,21 VANDERLIN DRIVE,WANGURI,NT,0810,130.8856931,-12.3762861
450,EAST SYDNEY PRIVATE HOSPITAL,PRIVATE OVERNIGHT,75-85 CROWN STREET,EAST SYDNEY,NSW,2010,151.21620528,-33.8737260299999
451,PERTH DERMATOLOGY CLINIC,PRIVATE SAME DAY,5-7 ROBINSON AVENUE,PERTH,WA,6000,115.86399284,-31.9446624199999
452,MORNINGTON ENDOSCOPY,PRIVATE SAME DAY,350 MAIN STREET,MORNINGTON,VIC,3931,145.04411915,-38.22767908
453,RIVERINA DAY SURGERY,PRIVATE SAME DAY,2-6 MEURANT AVENUE,WAGGA WAGGA,NSW,2650,147.35451484,-35.12097355
454,SOUTH BRISBANE DAY HOSPITAL,PRIVATE SAME DAY,87 IPSWICH ROAD,WOOLLOONGABBA,QLD,4102,153.03472664,-27.4913463299999
455,SOUTHSIDE CANCER CARE CENTRE,PRIVATE SAME DAY,"LEVEL 3, 531-533 THE KINGSWAY",MIRANDA,NSW,2228,151.10409861,-34.03417573
456,PARRAMATTA EYE CENTRE,PRIVATE SAME DAY,"SUITE 19, 34 CHARLES STREET",PARRAMATTA,NSW,2150,151.00985202,-33.81392686
457,RAMSAY SURGICAL CENTRE MIRANDA,PRIVATE SAME DAY,"LEVEL 3, 533 KINGSWAY",MIRANDA,NSW,2228,151.10410015,-34.03417517
458,DEVONPORT EYE HOSPITAL,PRIVATE SAME DAY,62 OLDAKER STREET,DEVONPORT,TAS,7310,146.35487443,-41.17547146
459,MIAMI PRIVATE HOSPITAL,PRIVATE SAME DAY,24 HILLCREST PARADE,MIAMI,QLD,4220,153.43684504,-28.06306288
460,CHELSEA HEIGHTS DAY SURGERY AND ENDOSCOPY,PRIVATE SAME DAY,93 WELLS ROAD,CHELSEA HEIGHTS,VIC,3196,145.13458138,-38.03321069
461,LAKEVIEW PRIVATE HOSPITAL,PRIVATE OVERNIGHT,17-19 SOLENT CIRCUIT,NORWEST,NSW,2153,150.9637245,-33.7311051199999
462,SYDNEY SURGICAL CENTRE,PRIVATE OVERNIGHT,LEVEL 1 166-168 BELMORE ROAD,RANDWICK,NSW,2031,151.24077181,-33.91694403
463,ST JOHN OF GOD SUBIACO EYE HOSPITAL,PRIVATE SAME DAY,190 CAMBRIDGE STREET,WEMBLEY,WA,6014,115.82414817,-31.94044471
464,ST JOHN OF GOD BERWICK DAY ONCOLOGY CENTRE,PRIVATE SAME DAY,"LEVEL 1, 55 KANGAN DRIVE",BERWICK,VIC,3806,145.34504691,-38.04488738
465,BALLARAT SURGICENTRE,PRIVATE SAME DAY,5-9 WOOD STREET,SOLDIERS HILL,VIC,3350,143.85176313,-37.5430431899999
466,TOWNSVILLE PRIVATE CLINIC,PRIVATE OVERNIGHT,136 WILLS STREET,TOWNSVILLE CITY,QLD,4810,146.81354311,-19.25862247
467,MATER PRIVATE HOSPITAL SPRINGFIELD,PRIVATE OVERNIGHT,30 HEALTH CARE DRIVE,SPRINGFIELD CENTRAL,QLD,4300,152.90857201,-27.6862288799999
468,PANCH DAY SURGERY CENTRE,PRIVATE SAME DAY,"LEVEL 4, 84 HOTHAM STREET",PRESTON,VIC,3073,145.00815625,-37.7467550699999
469,SOUTHERN ENDOSCOPY CENTRE,PRIVATE SAME DAY,271 BRIGHTON ROAD,SOMERTON PARK,SA,5144,138.52118128,-34.99951128
470,WOLLONGONG PRIVATE HOSPITAL,PRIVATE OVERNIGHT,360 CROWN STREET,WOLLONGONG,NSW,2500,150.88081811,-34.42559993
471,CHATSWOOD PRIVATE HOSPITAL,PRIVATE OVERNIGHT,SUITE 1/38B ALBERT AVENUE,CHATSWOOD,NSW,2067,151.18575455,-33.79766676
472,SYDNEY DAY HOSPITAL,PRIVATE SAME DAY,"LEVEL 1, PARK HOUSE , 187 MACQUARIE STREET",SYDNEY,NSW,2000,151.21204204,-33.86699981
473,DR SCOPE,PRIVATE SAME DAY,493 BALLARAT ROAD,SUNSHINE,VIC,3020,144.83252296,-37.77769066
474,ROBINA PRIVATE HOSPITAL,PRIVATE OVERNIGHT,1 BAYBERRY LANE,ROBINA,QLD,4226,153.37761966,-28.07246236
475,DOUBLE BAY DAY HOSPITAL,PRIVATE SAME DAY,"LEVEL 2, 451 NEW SOUTH HEAD RD",DOUBLE BAY,NSW,2028,151.24381958,-33.87778933
476,SLEEPMED HEALTHCARE,PRIVATE SAME DAY,78 FARRINGTON ROAD,LEEMING,WA,6149,115.85532071,-32.07952925
477,EPWORTH GEELONG,PRIVATE OVERNIGHT,1 EPWORTH PLACE,WAURN PONDS,VIC,3216,144.30257875,-38.19386781
478,SPECIALIST CARE AUSTRALIA LAUNCESTON,PRIVATE SAME DAY,129 WELLINGTON STREET,LAUNCESTON,TAS,7250,147.13880067,-41.44299562
479,ICON CANCER CENTRE NORTH LAKES,PRIVATE SAME DAY,9 MCLENNAN COURT,NORTH LAKES,QLD,4509,153.02183993,-27.24165963
480,MONASH HOUSE PRIVATE HOSPITAL,PRIVATE OVERNIGHT,"LEVEL 1, 271 CLAYTON ROAD",CLAYTON,VIC,3168,145.12018696,-37.92088079
481,FRESENIUS LIVERPOOL PRIVATE DIALYSIS CLINIC,PRIVATE SAME DAY,"LEVEL 2, 26 CASTLEREAGH STREET",LIVERPOOL,NSW,2170,150.92117929,-33.91837098
482,GENESIS CARE RADIATION ONCOLOGY CENTRE ST VINCENT'S HOSPITAL MELBOURNE,PRIVATE SAME DAY,41 VICTORIA PARADE,FITZROY,VIC,3065,144.97504834,-37.80754465
483,VERMONT PRIVATE HOSPITAL,PRIVATE OVERNIGHT,LEVEL 2/645-647 BURWOOD HIGHWAY,VERMONT SOUTH,VIC,3133,145.19963126,-37.85819378
484,ST VINCENT'S PRIVATE COMMUNITY HOSPITAL GRIFFITH,PRIVATE OVERNIGHT,41-45 ANIMOO AVENUE,GRIFFITH,NSW,2680,146.04371872,-34.28070532
485,GENESIS CARE RADIATION ONCOLOGY CENTRE ALBURY WODONGA,PRIVATE SAME DAY,CORNER BORELLA RD AND EAST ST,ALBURY,NSW,2640,146.93843839,-36.0775532499999
486,TASMAN HEALTH CARE DAY INFUSION UNIT,PRIVATE SAME DAY,"SUITE 3B & 8, LEVEL 3, 123 NERANG STREET",SOUTHPORT,QLD,4215,153.40793324,-27.97049907
487,GREENHILL DENTAL DAY SURGERY,PRIVATE SAME DAY,62 GREENHILL ROAD,WAYVILLE,SA,5034,138.59423539,-34.9420368899999
488,THE BORDER CANCER HOSPITAL,PRIVATE OVERNIGHT,201-239 BORELLA ROAD,ALBURY,NSW,2640,146.93858163,-36.07758706
489,THE SOUTHPORT PRIVATE HOSPITAL,PRIVATE OVERNIGHT,21 SPENDELOVE AVENUE,SOUTHPORT,QLD,4215,153.40772528,-27.97257604
490,SUNSHINE DIALYSIS CLINIC,PRIVATE SAME DAY,"LEVEL 1, 147-149 FURLONG ROAD",ST ALBANS,VIC,3021,144.81599064,-37.7610036999999
491,MATER PRIVATE DAY HOSPITAL BROOKWATER,PRIVATE SAME DAY,CNR OF AUGUSTA PARKWAY & TOURNAMENT DRIVE,BROOKWATER,QLD,4300,152.8911164,-27.66441279
492,ICON CANCER CENTRE REVESBY,PRIVATE SAME DAY,1-3 MACARTHUR STREET,REVESBY,NSW,2212,151.01527526,-33.95400955
493,HUMMINGBIRD HOUSE,PRIVATE OVERNIGHT,60 CURWEN TERRACE,CHERMSIDE,QLD,4032,153.02752296,-27.38312351
494,CENTRAL DAY SURGERY,PRIVATE SAME DAY,235 GREENHILL ROAD,DULWICH,SA,5065,138.62639511,-34.93976234
495,WEST LEEDERVILLE PRIVATE HOSPITAL,PRIVATE OVERNIGHT,"LEVEL 3, 2 MCCOURT STREET",WEST LEEDERVILLE,WA,6007,115.82797689,-31.9429412699999
496,ICON CANCER CENTRE MIDLAND,PRIVATE SAME DAY,6 CENTENNIAL PLACE,MIDLAND,WA,6056,116.00531449,-31.8942433299999
497,ST VINCENTS PRIVATE HOSPITAL WERRIBEE,PRIVATE OVERNIGHT,240 HOPPERS LANE,WERRIBEE,VIC,3030,144.70142507,-37.88786979
498,ARTARMON DAY SURGERY,PRIVATE SAME DAY,"SUITE 4, 448 PACIFIC HIGHWAY",ARTARMON,NSW,2064,151.17617231,-33.81054023
499,GENESIS CARE RADIATION ONCOLOGY CENTRE AT CABRINI,PRIVATE SAME DAY,183 WATTLETREE ROAD,MALVERN,VIC,3144,145.03333676,-37.8620816
500,ICON CANCER CENTRE HOBART,PRIVATE SAME DAY,"GROUND FLOOR, 2 MELVILLE STREET",HOBART,TAS,7000,147.32797128,-42.8780534099999
501,LIFT CANCER CARE SERVICES,PRIVATE SAME DAY,7/506-520 SOUTH ROAD,KURRALTA PARK,SA,5037,138.57097658,-34.9486057899999
502,ADELAIDE AMBULATORY DAY SURGERY,PRIVATE SAME DAY,SUITES 10A 50 HUTT STREET,ADELAIDE,SA,5000,138.61236347,-34.9267680799999
503,ARCADIA PITTWATER PRIVATE HOSPITAL,PRIVATE OVERNIGHT,4 DAYDREAM STREET,WARRIEWOOD,NSW,2102,151.28623842,-33.6774647899999
504,JAMISON STREET DAY SURGERY,PRIVATE SAME DAY,SUITE 151 - 1 JAMISON STREET,SYDNEY,NSW,2000,151.20584172,-33.8644876
505,ICON CANCER CENTRE MACKAY,PRIVATE SAME DAY,148 SAMS ROAD,MACKAY,QLD,4740,149.16358828,-21.1280068199999
506,FMC DIALYSIS CLINIC NORTH LAKES,PRIVATE SAME DAY,"T301-T305, SPECIALIST MEDICAL CENTRE, 6 NORTH LAKES DRIVE",NORTH LAKES,QLD,4509,153.02041048,-27.2413433299999
507,ROCKINGHAM DIALYSIS CLINIC,PRIVATE SAME DAY,LEVEL 1/35 MCNICHOLL STREET,ROCKINGHAM,WA,6168,115.74635265,-32.28362766
508,EAST BRISBANE DAY HOSPITAL,PRIVATE SAME DAY,"GROUND FLOOR, 45 WELLINGTON ROAD",EAST BRISBANE,QLD,4169,153.04000973,-27.4879659599999
509,CRAIGIE DAY SURGERY,PRIVATE SAME DAY,"SUITE 2, 9 PERILYA ROAD",CRAIGIE,WA,6025,115.76593354,-31.7844214099999
510,CANNINGTON DIALYSIS CLINIC,PRIVATE SAME DAY,13-15 LEILA STREET,CANNINGTON,WA,6107,115.93507296,-32.01690378
511,STIRLING DIALYSIS CLINIC,PRIVATE SAME DAY,1 PUCCINI COURT,STIRLING,WA,6021,115.80802018,-31.8891296699999
512,ROSEBUD ENDOSCOPY,PRIVATE SAME DAY,20 BONEO ROAD,ROSEBUD,VIC,3939,144.88933822,-38.3620392
513,NEPHROCARE MIDLAND DIALYSIS CLINIC,PRIVATE SAME DAY,11 THE AVENUE,MIDLAND,WA,6056,116.00413038,-31.88780944
514,ICON CANCER CENTRE ROCKINGHAM,PRIVATE SAME DAY,2 CIVIC BOULEVARD,ROCKINGHAM,WA,6168,115.74693375,-32.2874476699999
515,GORDON PRIVATE HOSPITAL,PRIVATE OVERNIGHT,746-748 PACIFIC HIGHWAY,GORDON,NSW,2072,151.1527876,-33.75785625
516,ROSEBUD DAY HOSPITAL,PRIVATE SAME DAY,29-31 BONEO ROAD,ROSEBUD,VIC,3939,144.89008243,-38.36219697
517,LEVANT COSMETIC DAY SURGERY RANDWICK,PRIVATE SAME DAY,"LEVEL 1, 164 BELMORE ROAD",RANDWICK,NSW,2031,151.2408613,-33.9168316299999
518,HOBART SPECIALIST DAY HOSPITAL,PRIVATE SAME DAY,"1ST FLOOR, 2 MELVILLE STREET",HOBART,TAS,7000,147.32796337,-42.87804871
519,ICON CANCER CENTRE WINDSOR GARDENS,PRIVATE SAME DAY,"TENANCY 1, LEVEL 1, 480 NORTH EAST ROAD",WINDSOR GARDENS,SA,5087,138.64961952,-34.8622990499999
520,SEAFORD DAY SURGERY,PRIVATE SAME DAY,4 VISTA PARADE,SEAFORD HEIGHTS,SA,5169,138.49367309,-35.1908008999999
521,WESTERN HAEMATOLOGY AND ONCOLOGY CLINICS,PRIVATE SAME DAY,18 PROWSE STREET,WEST PERTH,WA,6005,115.8418106,-31.9446193599999
522,WESTSIDE PRIVATE HOSPITAL,PRIVATE OVERNIGHT,"LEVELS GROUND, 1 & 3, 32 MORROW STREET",TARINGA,QLD,4068,152.98164752,-27.4926569899999
523,GREENSBOROUGH DAY SURGERY,PRIVATE SAME DAY,9-13 FLINTOFF STREET,GREENSBOROUGH,VIC,3088,145.1063371,-37.70376418
524,HONEYSUCKLE DAY HOSPITAL,PRIVATE SAME DAY,"UNIT 2, 19 HONEYSUCKLE DRIVE",NEWCASTLE,NSW,2300,151.76790109,-32.9255082
525,WINDSOR GARDENS DAY SURGERY,PRIVATE SAME DAY,"SUITE 1, LEVEL 1, 480 NORTH EAST ROAD",WINDSOR GARDENS,SA,5087,138.64984328,-34.8625792
526,ARROW HEALTH,PRIVATE OVERNIGHT,8 CARLISLE STREET,WOODEND,VIC,3442,144.53566783,-37.34723164
527,VICTORIAN CENTRE FOR MENTAL HEALTH,PRIVATE SAME DAY,112-116/445 PRINCES HWY,OFFICER,VIC,3809,145.41173565,-38.06023629
528,HABITAT THERAPEUTICS,PRIVATE OVERNIGHT,117 HELMS STREET,NEWCOMB,VIC,3219,144.39967551,-38.1708308899999
529,THE HADER CLINIC,PRIVATE OVERNIGHT,6-8 TOWNSEND ROAD,ST ALBANS PARK,VIC,3219,144.38315732,-38.18054519
530,ICON CANCER CENTRE CANBERRA,PRIVATE SAME DAY,"UNIVERSITY OF CANBERRA MEDICAL CENTRE, CNR BROULA & ALLAWOONA STREET",BRUCE,ACT,2617,149.08642101,-35.2365572799999
531,BUNDABERG PRIVATE DAY HOSPITAL,PRIVATE SAME DAY,51 COMMERCIAL STREET,KENSINGTON,QLD,4670,152.32687853,-24.89697038
532,TUGGERAH LAKES PRIVATE HOSPITAL,PRIVATE OVERNIGHT,645 PACIFIC HIGHWAY,KANWAL,NSW,2259,151.48225253,-33.26243396
533,NORWOOD DAY SURGERY,PRIVATE SAME DAY,42 NELSON STREET,STEPNEY,SA,5069,138.6293619,-34.9122541999999
534,ALBANY DAY HOSPITAL,PRIVATE SAME DAY,6 LUBICH WAY,MIRA MAR,WA,6330,117.89146108,-35.01561423
535,ARCHER ST DAY HOSPITAL,PRIVATE SAME DAY,163 ARCHER STREET,NORTH ADELAIDE,SA,5006,138.594819,-34.9078968499999
536,GENESISCARE HURSTVILLE,PRIVATE SAME DAY,"LEVEL B2 AND 6, 31 DORA STREET",HURSTVILLE,NSW,2220,151.10059852,-33.9644603
537,HAMPTON DAY HOSPITAL,PRIVATE SAME DAY,338 SOUTH ROAD,HAMPTON EAST,VIC,3188,145.03256093,-37.93302763
538,GATEWAY DAY HOSPITAL,PRIVATE SAME DAY,"LEVEL 18, GATEWAY TOWER, 1 MACQUARIE PLACE",SYDNEY,NSW,2000,151.20965631,-33.86182143
539,ICON CANCER CENTRE MORELAND,PRIVATE SAME DAY,275 MORELAND ROAD,COBURG,VIC,3058,144.95851249,-37.7542889499999
540,EPWORTH EASTERN HOSPITAL (2 of 3 campuses),PRIVATE OVERNIGHT,116-118 THAMES STREET,BOX HILL NORTH,VIC,3128,145.11977914,-37.81293922
541,EPWORTH EASTERN HOSPITAL (3 of 3 campuses),PRIVATE OVERNIGHT,209 COTHAM ROAD,KEW,VIC,3101,145.04830494,-37.80869382
542,THE BAYS HOSPITAL (2 of 2 campuses),PRIVATE OVERNIGHT,86 VICTORIA STREET,HASTINGS,VIC,3915,145.18966071,-38.3037272
543,GENESISCARE RADIATION ONCOLOGY CENTRE SHEPPARTON,PRIVATE SAME DAY,124 CORIO STREET,SHEPPARTON,VIC,3630,145.40364696,-36.37832164
544,CALVARY ADELAIDE HOSPITAL,PRIVATE OVERNIGHT,120 ANGAS STREET,ADELAIDE,SA,5000,138.60536127,-34.92942354
545,CALVARY ADELAIDE HOSPITAL - REHABILITATION,PRIVATE OVERNIGHT,120 ANGAS STREET,ADELAIDE,SA,5000,138.60536127,-34.92942354
546,ICON CANCER CENTRE GEELONG,PRIVATE SAME DAY,1 EPWORTH PLACE,WAURN PONDS,VIC,3216,144.30249244,-38.1940786399999
547,SUNDEW DAY SURGERY,PRIVATE SAME DAY,24 SUNDEW RISE,JOONDALUP,WA,6027,115.76924243,-31.7585541199999
548,SOUTH YARRA DAY SURGERY,PRIVATE SAME DAY,"LEVEL 11, 9 YARRA ST",SOUTH YARRA,VIC,3141,144.99295294,-37.8375326199999
549,VSC DAY SURGERY,PRIVATE SAME DAY,"LEVEL 1, 268 MANNINGHAM ROAD",TEMPLESTOWE LOWER,VIC,3107,145.10990276,-37.7733263599999
550,GIH ACCESS ENDOSCOPY,PRIVATE SAME DAY,"LEVEL 1, 445 PRINCES HIGHWAY",OFFICER,VIC,3809,145.41124323,-38.05995623
551,SPECIALIST CARE AUSTRALIA ULVERSTONE,PRIVATE SAME DAY,35A QUEEN ST,WEST ULVERSTONE,TAS,7315,146.16318357,-41.15158236
552,GENESISCARE KINGSWOOD,PRIVATE SAME DAY,29-33 DERBY STREET AND 38 SOMERSET STREET,KINGSWOOD,NSW,2747,150.71567912,-33.76144184
553,GENESISCARE MANDURAH,PRIVATE SAME DAY,UNIT 3/35 MINILYA PARKWAY,MANDURAH,WA,6210,115.76534677,-32.53010403
554,MONASH IVF SYDNEY CBD,PRIVATE SAME DAY,"LEVEL 10, 207 KENT STREET",SYDNEY,NSW,2000,151.20362688,-33.8636717699999
555,ADVANCED ORAL AND MAXILLOFACIAL SURGERY,PRIVATE SAME DAY,238 ANGAS STREET,ADELAIDE,SA,5000,138.60967692,-34.92936215
556,GREGORY HILLS RENAL CARE CENTRE,PRIVATE SAME DAY,"UNIT 3 & 4, 31 LASSO ROAD",GREGORY HILLS,NSW,2557,150.76291843,-34.0219938499999
557,B.BRAUN MORAYFIELD RENAL CARE CENTRE,PRIVATE SAME DAY,19-31 DICKSON ROAD,MORAYFIELD,QLD,4506,152.9506438,-27.09802002
558,HADER CLINIC QUEENSLAND PRIVATE,PRIVATE SAME DAY,30 FRASER ROAD,GYMPIE,QLD,4570,152.64174402,-26.1651628
559,BRISBANE PROCEDURE CENTRE,PRIVATE SAME DAY,42 DOGGETT STREET,NEWSTEAD,QLD,4006,153.0422179,-27.45464591
560,SOUTHSIDE PROCEDURE CENTRE,PRIVATE SAME DAY,"SUITE 33, LEVEL 2, 245 MCCULLOUGH STREET",SUNNYBANK,QLD,4109,153.06124194,-27.57237205
561,NOTTING HILL CITY HEALTH DAY HOSPITAL,PRIVATE SAME DAY,33-37 DUERDIN STREET,NOTTING HILL,VIC,3168,145.14698491,-37.9096506999999
562,WANDI NERIDA,PRIVATE SAME DAY,228 OLD GYMPIE ROAD,MOOLOOLAH VALLEY,QLD,4553,152.97561408,-26.75348503
563,RAMSAY SURGICAL CENTRE ORANGE,PRIVATE OVERNIGHT,"LEVEL 3 & 4, 1521 FOREST ROAD",ORANGE,NSW,2800,149.08997614,-33.31563356
564,SOMERSET PRIVATE HOSPITAL,PRIVATE OVERNIGHT,"LEVEL 1, 38 SOMERSET STREET",KINGSWOOD,NSW,2747,150.71567775,-33.76144192
565,CANBERRA REGION NEUROLOGY AND PAIN CENTRE,PRIVATE SAME DAY,"UNITS 2-4 CORINNA CHAMBERS, 36-38 CORINNA STREET",PHILLIP,ACT,2606,149.08392373,-35.3464239799999
566,TEMPLESTOWE DAY SURGERY,PRIVATE SAME DAY,2/114 JAMES STREET,TEMPLESTOWE,VIC,3106,145.12852079,-37.75703716
567,COFFS DAY HOSPITAL,PRIVATE SAME DAY,201 ROSE AVENUE,COFFS HARBOUR,NSW,2450,153.12409814,-30.28790251
568,LEVANT CLINIC CANBERRA,PRIVATE SAME DAY,"SUITE 3, LEVEL C, CANBERRA SPECIALIST MEDICAL CENTRE, 1 BROULA STREET",BRUCE,ACT,2617,149.0865109,-35.23652298
569,TOOWOOMBA PRIVATE DAY HOSPITAL,PRIVATE SAME DAY,20 GOGGS STREET,TOOWOOMBA,QLD,4350,151.94460346,-27.5666461499999
570,HARLEY DAY SURGERY,PRIVATE SAME DAY,63 PALMER PLACE,NORTH ADELAIDE,SA,5006,138.59477452,-34.90955158
571,EAST SIDE RECOVERY,PRIVATE SAME DAY,272B DORSET ROAD,BORONIA,VIC,3155,145.28619818,-37.8592573399999
572,FRASER COAST HOSPICE,PRIVATE OVERNIGHT,222 URRAWEEN ROAD,URRAWEEN,QLD,4655,152.80858531,-25.2991896099999
573,HOBART EYE SURGEONS,PRIVATE SAME DAY,182 ARGYLE STREET,HOBART,TAS,7000,147.32211746,-42.87571654
574,RAMSAY SURGICAL CENTRE COFFS HARBOUR,PRIVATE SAME DAY,69 ALBANY STREET,COFFS HARBOUR,NSW,2450,153.11586539,-30.30023385
575,GENESISCARE MAITLAND,PRIVATE SAME DAY,30 METFORD ROAD,EAST MAITLAND,NSW,2323,151.60086781,-32.76035784
576,HERSTON PRIVATE HOSPITAL,PRIVATE SAME DAY,"LEVELS 00, 01 & 02, 7-9 WREN STREET",BOWEN HILLS,QLD,4006,153.03071144,-27.44762973
577,ANAM CARA HOUSE GEELONG,PRIVATE OVERNIGHT,"NICOL DRIVE SOUTH, DEAKIN UNIVERSITY",WAURN PONDS,VIC,3216,144.28630119,-38.2026267699999
578,SYDNEY PAIN DAY SURGERY,PRIVATE SAME DAY,"SUITE 3, 44-46 OXFORD STREET",EPPING,NSW,2121,151.08325404,-33.7709753
579,RAMSAY CLINIC THIRROUL,PRIVATE OVERNIGHT,72 PHILLIP STREET,THIRROUL,NSW,2515,150.91767314,-34.31049087
580,CABRAMATTA DAY SURGERY,PRIVATE SAME DAY,2A CHURCH STREET,CABRAMATTA,NSW,2166,150.93728291,-33.89625294
581,FAMILY PLANNING NSW,PRIVATE SAME DAY,8 HOLKER STREET,NEWINGTON,NSW,2127,151.05587698,-33.83240232
582,MATILDA NEPEAN PRIVATE HOSPITAL,PRIVATE OVERNIGHT,39 ORTH STREET,KINGSWOOD,NSW,2747,150.71654674,-33.7598012299999
583,PASO INFUSION CENTRE,PRIVATE SAME DAY,5 SUSONO WAY,FRANKSTON,VIC,3199,145.13298118,-38.15419286
584,CAMDEN SURGICAL HOSPITAL,PRIVATE SAME DAY,35 HILDER STREET,ELDERSLIE,NSW,2570,150.71658848,-34.05215799
585,MONASH HEART PRIVATE OPERATED BY JESSIE MCPHERSON PRIVATE HOSPITAL,PRIVATE OVERNIGHT,631 BLACKBURN ROAD,CLAYTON,VIC,3168,145.13989174,-37.91241933
586,IMH DEAKIN PRIVATE HOSPITAL,PRIVATE OVERNIGHT,CORNER OF STRICKLAND CRESCENT AND DENISON STREET,DEAKIN,ACT,2600,149.09438648,-35.31909651
587,SWAN CLINIC FOR PLASTIC SURGERY,PRIVATE SAME DAY,331 THE BOULEVARDE,GYMEA,NSW,2227,151.0919084,-34.02770027
588,DONCASTER PRIVATE HOSPITAL,PRIVATE SAME DAY,720 DONCASTER ROAD,DONCASTER,VIC,3108,145.13288328,-37.78737412
589,SPECIALIST CARE AUSTRALIA - CAMPBELL TOWN,PRIVATE SAME DAY,101 HIGH STREET,CAMPBELL TOWN,TAS,7210,147.49403092,-41.92897936
590,HOVE DAY SURGERY,PRIVATE SAME DAY,387 - 389 BRIGHTON ROAD,HOVE,SA,5048,138.52235572,-35.01195662
591,SMITHFIELD ENDOSCOPY CENTRE,PRIVATE SAME DAY,888 THE HORSLEY DRIVE,SMITHFIELD,NSW,2164,150.92108363,-33.85096471
592,THE GEORGE CENTRE,PRIVATE OVERNIGHT,1A & 1B THE HERMITAGE WAY,GLEDSWOOD HILLS,NSW,2557,150.77098914,-34.02361737
593,LEVANT GOLD COAST DAY HOSPITAL,PRIVATE SAME DAY,"LEVEL 2, 127 QUEEN STREET",SOUTHPORT,QLD,4215,153.4097201,-27.97171471
594,BOROONDARA DAY SURGERY,PRIVATE SAME DAY,110 CHURCH STREET,HAWTHORN,VIC,3122,145.01913614,-37.81718847
595,CANCER CARE GRIFFITH,PRIVATE SAME DAY,115-119 BINYA STREET,GRIFFITH,NSW,2680,146.04402292,-34.2803486999999
596,BROADWATER PRIVATE DAY HOSPITAL,PRIVATE SAME DAY,7-11 SHORT STREET,SOUTHPORT,QLD,4215,153.41629331,-27.96994404
597,WIDE BAY PRIVATE DAY HOSPITAL,PRIVATE SAME DAY,125 WOONGARRA STREET,BUNDABERG WEST,QLD,4670,152.33482571,-24.87081488
598,VICTORIA STREET PRIVATE HOSPITAL,PRIVATE OVERNIGHT,2 VICTORIA STREET,WOLLONGONG,NSW,2500,150.89293645,-34.42202544
599,BURNSIDE DAY SURGERY,PRIVATE SAME DAY,"SUITE 1, 535-537 GLYNBURN ROAD",HAZLEWOOD PARK,SA,5066,138.65998169,-34.9395951399999
600,SPRINGWOOD DAY SURGERY,PRIVATE SAME DAY,52 CINDERELLA DRIVE,SPRINGWOOD,QLD,4127,153.13028518,-27.6135025299999
601,NORTHERN PRIVATE HOSPITAL,PRIVATE OVERNIGHT,12 OSBURN PLACE,EPPING,VIC,3076,145.0124615,-37.6531717999999
602,BOND DAY HOSPITAL,PRIVATE SAME DAY,"SUITE 2.01, 8 ELIZABETH MACARTHUR DRIVE",BELLA VISTA,NSW,2153,150.95164382,-33.7442293299999
603,CREMORNE PRIVATE DAY SURGERY,PRIVATE SAME DAY,"LEVEL 1, 510 CHURCH STREET",CREMORNE,VIC,3121,144.99730906,-37.82784041
604,ESUS CENTRE,PRIVATE SAME DAY,588 HAY STREET,SUBIACO,WA,6008,115.81542229,-31.9468570399999
605,BRISBANE SOUTH PRIVATE HOSPITAL,PRIVATE SAME DAY,4 PAXTON STREET,SPRINGWOOD,QLD,4127,153.12613961,-27.61747458
606,AVIVE CLINIC BRISBANE,PRIVATE OVERNIGHT,16 BRYDEN STREET,WINDSOR,QLD,4030,153.0315594,-27.4383407999999
607,AVIVE CLINIC MORNINGTON PENINSULA,PRIVATE OVERNIGHT,1 ST JOHNS LANE,MOUNT ELIZA,VIC,3930,145.09539405,-38.17875563
608,GEELONG DAY SURGERY,PRIVATE SAME DAY,21-29 PRINCESS HIGHWAY,NORLANE,VIC,3214,144.35502031,-38.0965462899999
609,GENESISCARE CAMPBELLTOWN,PRIVATE SAME DAY,38 CAMDEN ROAD,CAMPBELLTOWN,NSW,2560,150.80600411,-34.0711191999999
610,CANCER CARE MACARTHUR,PRIVATE SAME DAY,218 QUEEN STREET,CAMPBELLTOWN,NSW,2560,150.81364594,-34.06773515
611,FITZROY COMMUNITY HOSPICE,PRIVATE OVERNIGHT,38 AGNES STREET,THE RANGE,QLD,4700,150.49212425,-23.3816814099999
612,LAUNCESTON HEALTH HUB DAY PROCEDURE UNIT,PRIVATE SAME DAY,247 WELLINGTON STREET,LAUNCESTON,TAS,7520,147.14029814,-41.44842563
613,JOLIMONT DAY HOSPITAL,PRIVATE SAME DAY,"LEVEL 2, 150 JOLIMONT ROAD",EAST MELBOURNE,VIC,3002,144.97923872,-37.8170032199999
614,WEST GIPPSLAND ENDOSCOPY CENTRE,PRIVATE SAME DAY,41 LANDSBOROUGH STREET,WARRAGUL,VIC,3820,145.92767715,-38.17290107
615,CALVARY CONNERY CENTRE,PRIVATE SAME DAY,46 JOHN RICE AVENUE,ELIZABETH VALE,SA,5112,138.6673994,-34.74802414
616,GOSFORD SPECIALIST DAY HOSPITAL,PRIVATE SAME DAY,1 & 2 131 HARRY PARRY DRIVE,GOSFORD,NSW,2250,151.3448323,-33.42571048
617,IMH NUNDAH PRIVATE HOSPITAL,PRIVATE OVERNIGHT,"FLOORS GROUND, 2,3 & 4, 20 NELLIE STREET",NUNDAH,QLD,4012,153.06360708,-27.39876728
618,CANCER CARE NOOSA,PRIVATE SAME DAY,36-40 HOFMANN DRIVE,NOOSAVILLE,QLD,4566,153.04640224,-26.4156318299999
619,WYVERN PRIVATE HOSPITAL,PRIVATE OVERNIGHT,33A MYOORA ROAD,TERREY HILLS,NSW,2084,151.22132891,-33.68823173
620,ADENEY PRIVATE HOSPITAL,PRIVATE OVERNIGHT,209 COTHAM ROAD,KEW,VIC,3101,145.04811191,-37.8084952799999
621,CANCER CARE NORTHERN BEACHES,PRIVATE SAME DAY,"SUITE 4, 49 FRENCHS FOREST ROAD EAST",FRENCHS FOREST,NSW,2086,151.23956694,-33.75114518
622,WESTERN HOSPITAL,PRIVATE OVERNIGHT,168 CUDMORE TERRACE,HENLEY BEACH,SA,5022,138.50022887,-34.91022098
623,JOONDALUP HEALTH CAMPUS - PRIVATE,PRIVATE OVERNIGHT,SHENTON AVENUE,JOONDALUP,WA,6027,115.77173051,-31.73879384
624,ST JOHN OF GOD MIDLAND HEALTH CAMPUS - PRIVATE,PRIVATE OVERNIGHT,1 CLAYTON STREET,MIDLAND,WA,6056,116.00801723,-31.89452771
625,WESTSIDE HAEMATOLOGY AND ONCOLOGY CLINIC,PRIVATE SAME DAY,"SUITE 305, LEVEL 3, 32 MORROW STREET",TARINGA,QLD,4068,152.981641,-27.4926389999999
626,ACT DAY HOSPITAL,PRIVATE SAME DAY,37/39 GEILS COURT,DEAKIN,ACT,2600,149.09688274,-35.31559083
627,KING STREET PRIVATE HOSPITAL,PRIVATE OVERNIGHT,291 KING STREET,NEWCASTLE,NSW,2300,151.76795328,-32.92867058
628,SOUTHERN SYDNEY PRIVATE HOSPITAL,PRIVATE OVERNIGHT,"LEVEL 2, 629 KINGSWAY",MIRANDA,NSW,2228,151.0991098,-34.03346105
629,ARMIDALE DAY SURGERY,PRIVATE SAME DAY,126 O'DELL STREET,ARMIDALE,NSW,2350,151.6540439,-30.5114861
630,EASTWOOD PRIVATE HOSPITAL,PRIVATE OVERNIGHT,204 GREENHILL ROAD,EASTWOOD,SA,5063,138.6160931,-34.940529
631,RAMSAY SURGICAL CENTRE CHARLESTOWN,PRIVATE OVERNIGHT,"LEVEL 4, 99 PACIFIC HIGHWAY",CHARLESTOWN,NSW,2290,151.6933779,-32.965277
632,BROOME RENAL HEALTH CENTRE,PRIVATE SAME DAY,LOT 640 ANNE STREET,BROOME,WA,6725,122.23034462,-17.9611144799999
633,DERBY RENAL HEALTH CENTRE,PRIVATE SAME DAY,5 STANLEY STREET,DERBY,WA,6728,123.6388432,-17.30728729
634,KUNUNURRA RENAL HEALTH CENTRE,PRIVATE SAME DAY,1125 IRONWOOD DRIVE,KUNUNURRA,WA,6743,128.73619939,-15.76643854
635,FITZROY CROSSING RENAL HEALTH CENTRE,PRIVATE SAME DAY,52 FALLON ROAD,FITZROY CROSSING,WA,6765,125.56266858,-18.1917603799999
636,GENESISCARE WESTERN HOSPITAL,PRIVATE SAME DAY,168 CUDMORE TERRACE,HENLEY BEACH,SA,5022,138.500297,-34.910633
